<?xml version="1.0" encoding="utf-8" ?>
<kml xmlns="http://www.opengis.net/kml/2.2">
<Document id="root_doc">
<Schema name="road_data_base_r2__entities" id="road_data_base_r2__entities">
	<SimpleField name="Layer" type="string"></SimpleField>
</Schema>
<Folder><name>road_data_base_r2__entities</name>
  <Placemark id="road_data_base_r2__entities.1">
	<Style><LineStyle><color>ff0000ff</color></LineStyle><PolyStyle><fill>0</fill></PolyStyle></Style>
	<ExtendedData><SchemaData schemaUrl="#road_data_base_r2__entities">
		<SimpleData name="Layer">DERAWAN_W52</SimpleData>
	</SchemaData></ExtendedData>
      <LineString><coordinates>117.289547557998,1.90567758467838,48.526439666748 117.289662843489,1.90570237622604,48.4397010803223 117.289742765104,1.9057195634536,48.3795700073242 117.289915004808,1.9057415910166,47.8030624389648 117.290173885424,1.90577935788927,46.8629188537598 117.290411892515,1.90582132933021,46.1086502075195 117.29075220159,1.90589479248614,45.1842803955078 117.290876424035,1.9059210291697,44.8253593444824 117.291107123478,1.90596405201693,44.2061920166016 117.291375399969,1.90600391873964,43.3587532043457 117.29178042238,1.90604271074707,42.7505378723145 117.291888982707,1.90604689331008,42.6625289916992 117.292195879468,1.90606049443037,42.5571022033691 117.292462064254,1.90607620408851,42.1175384521484 117.29276478406,1.90609295661972,41.9002113342285 117.29296312149,1.90612128100278,42.0779113769531 117.293155198483,1.90616431017078,42.2586860656738 117.293345192638,1.90623569798334,42.5061569213867 117.293375472201,1.90628085537538,42.4818725585938 117.293397404688,1.90635962494669,42.3792343139648 117.293404202524,1.90643314467283,42.3853988647461 117.293365629822,1.90672723484979,42.2773666381836 117.293352070246,1.90679340619713,42.1170539855957 117.293328083716,1.90691314404775,41.9418296813965 117.293298875405,1.90703655927975,42.1181411743164 117.293285837841,1.90710010542257,42.1735610961914 117.29324957172,1.90718339084576,42.0536575317383 117.293205432492,1.90733808472332,42.0477638244629 117.293142061916,1.90764070055922,45.8328552246094 117.293142115204,1.90795548354173,45.7562408447266 117.293184846578,1.9083668406896,45.2189865112305 117.293195582179,1.90877462622691,46.592887878418 117.293135175131,1.90896064536745,46.9098510742188 117.293000108696,1.90913236893914,46.9269104003906 117.292680205294,1.90947224638997,50.1226577758789 117.292484715913,1.90973698412429,52.0617637634277 117.292420764997,1.90998381387542,52.6573867797852 117.29241013331,1.91017697811841,52.7196426391602 117.292587959683,1.91058473506304,50.7990112304688 117.292790666858,1.91096744861664,52.4471549987793 117.293135604392,1.91149322028585,58.1438369750977 117.293541000261,1.91213344893866,64.0311126708984 117.293875265038,1.91261987476094,66.6084213256836 117.294010415623,1.91294178860871,66.97900390625 117.294142032318,1.91338174761617,66.1685791015625 117.294223861325,1.9137430186296,64.7071228027344 117.294305776758,1.91459792739578,61.2235107421875 117.294302310813,1.91512733640713,60.9192047119141 117.294337950287,1.91564243001779,60.7853317260742 117.294490937682,1.91632562662032,60.3208389282227 117.294594098928,1.9166797399743,60.0153121948242 117.294626395021,1.91675680211888,59.9220962524414</coordinates></LineString>
  </Placemark>
  <Placemark id="road_data_base_r2__entities.2">
	<Style><LineStyle><color>ff0000ff</color></LineStyle><PolyStyle><fill>0</fill></PolyStyle></Style>
	<ExtendedData><SchemaData schemaUrl="#road_data_base_r2__entities">
		<SimpleData name="Layer">SAMOSIR_1_W50</SimpleData>
	</SchemaData></ExtendedData>
      <LineString><coordinates>117.289094299601,1.90545007463002,48.8261833190918 117.288869616173,1.90546615479696,49.5346641540527 117.288394748667,1.90546538666478,50.6591110229492 117.287770941596,1.90536441854488,51.2458724975586 117.28741351992,1.90532404934049,51.4555168151855 117.287096000034,1.90529385135745,51.5855331420898 117.286280575164,1.9052838098624,51.6515846252441 117.285943393692,1.90529899180921,51.3598480224609 117.285626444919,1.90532434830434,51.5905723571777 117.285279150406,1.90535479879127,51.7642822265625 117.284941972204,1.90539019515981,51.9379196166992 117.28468009261,1.90539023871043,52.2296257019043 117.284473848377,1.90539027298071,52.4188613891602 117.284182184183,1.90539032140226,52.7732353210449 117.283653354799,1.9053146395925,53.2135467529297 117.282928394225,1.90522372303672,53.8700180053711 117.282349551159,1.90515299670332,54.3606109619141 117.281851623813,1.90503687997708,55.4685592651367 117.281499239406,1.90487013194974,57.0758590698242 117.281172143034,1.90469829069352,57.9905624389648 117.280703963631,1.90435471886339,57.8753929138184 117.280421810584,1.90409197494594,57.9264259338379 117.280195276616,1.9037280073928,58.9485054016113 117.279988980321,1.90340460710044,59.9789962768555 117.279716939796,1.90312164674797,60.2180938720703 117.279263957098,1.90291943295803,60.1647567749023 117.278574367745,1.90261632570305,60.2046127319336 117.278227040227,1.90243953942341,60.566291809082 117.27794489674,1.90223234987849,61.2501907348633 117.277771205536,1.90197199096877,61.8064575195312 117.277459243743,1.90155262321681,62.1150550842285 117.277051732268,1.90104209292916,62.4512023925781 117.276628492275,1.90057213566482,63.1528282165527 117.276291265559,1.9002992217486,63.2727088928223 117.27597427557,1.90006178612633,63.3901062011719 117.275490930727,1.89975355522316,63.668830871582 117.274821560536,1.89936435402496,64.5695037841797 117.274081378206,1.8989500015416,64.2051544189453 117.27361321991,1.89872262613876,64.668098449707 117.273200699318,1.89851050874681,65.3694000244141 117.272783109174,1.89822248112933,65.1897277832031 117.272425655647,1.89796978414054,64.5361862182617 117.272017619262,1.89768175478428,64.2926712036133 117.271655088486,1.89730268155942,64.1688537597656 117.271358296704,1.89684782830017,62.7939949035645 117.271240970924,1.89665747753566,64.3906784057617</coordinates></LineString>
  </Placemark>
  <Placemark id="road_data_base_r2__entities.3">
	<Style><LineStyle><color>ff0000ff</color></LineStyle><PolyStyle><fill>0</fill></PolyStyle></Style>
	<ExtendedData><SchemaData schemaUrl="#road_data_base_r2__entities">
		<SimpleData name="Layer">IN_FRNT_JW_2_W05</SimpleData>
	</SchemaData></ExtendedData>
      <LineString><coordinates>117.250899056267,1.89812209710228,32.5504684448242 117.25077228535,1.89813736495526,31.8187503814697 117.250701012654,1.89814594980019,31.4073657989502 117.250462070618,1.89818064245815,30.2667942047119 117.250083207846,1.89825000885828,27.7063770294189 117.249725872009,1.89831720524698,25.7039127349854 117.249446031153,1.89837572751938,24.2445049285889 117.249116680357,1.89844725333631,22.5896911621094 117.248866980531,1.89852743036493,21.7343330383301 117.248537634928,1.89863577850832,20.7736034393311 117.248294394882,1.89872678413385,20.1872406005859 117.248070528914,1.89881995373673,19.8863525390625 117.247904783869,1.89890228532238,19.6547660827637 117.24760342693,1.8990409534928,19.2290191650391 117.247377410938,1.89915145113969,18.8784580230713 117.247125557579,1.89922513004192,17.4019889831543 117.24690168747,1.89929014208567,15.5974445343018 117.246561578891,1.89940932103996,13.2955656051636 117.246230081138,1.8995219982828,11.8814477920532 117.245954546543,1.89959351582412,10.6448106765747 117.245674705028,1.89963470970864,10.0921936035156 117.245394859771,1.89966507394022,9.96435356140137 117.245196814605,1.89968026323245,10.1213636398315 117.245052583287,1.89968353291794,10.2900943756103 117.244841616839,1.89964999187236,10.2302522659302 117.244749044476,1.89960018620729,9.94473648071289 117.244709208797,1.89952763150642,9.5847282409668 117.244679056462,1.89942583348959,8.53524780273438 117.244647819949,1.89926338936691,5.76239061355591 117.244612274529,1.8990717039203,3.12248682975769 117.244595038051,1.89896449036032,2.28448557853699 117.244600407694,1.89888759781654,1.69850385189056 117.244657364099,1.89882196487673,0.930836975574493</coordinates></LineString>
  </Placemark>
  <Placemark id="road_data_base_r2__entities.4">
	<Style><LineStyle><color>ff0000ff</color></LineStyle><PolyStyle><fill>0</fill></PolyStyle></Style>
	<ExtendedData><SchemaData schemaUrl="#road_data_base_r2__entities">
		<SimpleData name="Layer">IN_FRNT_CD_6_W05</SimpleData>
	</SchemaData></ExtendedData>
      <LineString><coordinates>117.273139202162,1.88463035886417,-18.5858840942383 117.273225703487,1.88468013525571,-19.6804485321045 117.273437732355,1.88480214723529,-22.363395690918 117.273635795562,1.88491763448386,-23.3804740905762 117.273970203106,1.88509807986253,-23.1472320556641 117.274293141421,1.88535217170592,-23.4550437927246 117.274472555029,1.88549943049701,-24.0147228240967 117.274729476239,1.88573042679152,-25.2231063842773 117.274957683746,1.88590078147815,-26.4310188293457 117.27516435759,1.88602204307519,-26.7479057312012 117.275408347957,1.88616062869034,-26.3841228485107 117.27566812841,1.88631365045963,-26.8488922119141 117.275857588533,1.8864681257236,-26.634033203125 117.276064270008,1.88663703913182,-26.4656639099121 117.276206363953,1.88674531670993,-27.1923656463623 117.276394382816,1.88686369425221,-27.9080944061279 117.276545082214,1.88694597544308,-27.6562271118164 117.276824952535,1.88709466240047,-26.5841026306152 117.276998615226,1.88718704939502,-26.426025390625 117.277129221351,1.88725056364487,-26.2112369537354 117.277460752151,1.88739202174437,-24.0413475036621 117.27770904638,1.88750894491184,-22.5177555084229 117.278057797262,1.88762874095023,-20.1948566436768 117.278373536291,1.88771677353799,-16.6233291625977 117.278534277797,1.88777883828138,-14.9799213409424 117.278633302912,1.88780770194438,-13.9741706848144 117.278851447686,1.88783654638863,-12.5994272232056</coordinates></LineString>
  </Placemark>
  <Placemark id="road_data_base_r2__entities.5">
	<Style><LineStyle><color>ff0000ff</color></LineStyle><PolyStyle><fill>0</fill></PolyStyle></Style>
	<ExtendedData><SchemaData schemaUrl="#road_data_base_r2__entities">
		<SimpleData name="Layer">UBUD_W28</SimpleData>
	</SchemaData></ExtendedData>
      <LineString><coordinates>117.256235702257,1.88961456870295,46 117.256160870752,1.88952031389601,45.304874420166 117.256108673683,1.88945456653846,44.8199996948242 117.255866405764,1.88905115724716,41.0870018005371 117.255525212508,1.88851869965021,39.4034996032715 117.254986805385,1.88824072145264,39.0320014953613 117.254280411214,1.88824888313124,44.1119995117188 117.253553777561,1.88819809981084,48.4690017700195 117.252816474356,1.88820174186088,51.8339996337891 117.252689391219,1.88816277563602,52.1253089904785 117.252529857313,1.88811385700242,52.4910011291504 117.252084212292,1.88809059743628,55.0110015869141 117.251363819306,1.8884504670434,58.9420013427734 117.250256262387,1.88904420423605,61.1650009155273 117.248654200132,1.88984213794485,60.6570014953613 117.247027401018,1.8905795712108,61.9860000610352 117.245536066011,1.89154330348924,61.7150001525879 117.243804226677,1.89264984376362,61.117000579834 117.243002929258,1.89317737645729,61.0929985046387 117.242523647656,1.8937526437188,57.2589988708496 117.242515772526,1.89377744271852,57.1174964904785</coordinates></LineString>
  </Placemark>
  <Placemark id="road_data_base_r2__entities.6">
	<Style><LineStyle><color>ff0000ff</color></LineStyle><PolyStyle><fill>0</fill></PolyStyle></Style>
	<ExtendedData><SchemaData schemaUrl="#road_data_base_r2__entities">
		<SimpleData name="Layer">IN_DISP_C2_2_W49</SimpleData>
	</SchemaData></ExtendedData>
      <LineString><coordinates>117.314829290639,1.93874703784014,34.8300018310547 117.314920070511,1.93875838270885,35.5021171569824 117.315059708888,1.93877583226966,36.5359992980957 117.315481187865,1.93873221429021,37.8610000610352 117.316323549452,1.93846036133973,39.8560028076172 117.316675336263,1.93838353645915,39.2569999694824 117.31716199577,1.93829028829234,40.1839981079102 117.317380032825,1.93822508002514,40.5660018920898 117.317772248321,1.93796631638599,40.8899993896484 117.318235264054,1.93765721497225,41.9500007629395 117.318430249377,1.9375367390041,42.5670013427734 117.318624108567,1.93740481303367,42.7879981994629 117.318919682294,1.93725053283956,41.7270011901855 117.319136589017,1.93715252896652,40.9420013427734 117.319541736216,1.93692938538028,39.7050018310547 117.31978168787,1.93685145024882,40.3330001831055 117.320225072766,1.93675142420757,40.0740013122559 117.320654399386,1.93660531723276,36.689998626709 117.320774089528,1.93654168225885,35.6629981994629 117.321230410602,1.9364989044852,32.9360008239746 117.321239323373,1.93649939975643,32.9232635498047</coordinates></LineString>
  </Placemark>
  <Placemark id="road_data_base_r2__entities.7">
	<Style><LineStyle><color>ff0000ff</color></LineStyle><PolyStyle><fill>0</fill></PolyStyle></Style>
	<ExtendedData><SchemaData schemaUrl="#road_data_base_r2__entities">
		<SimpleData name="Layer">IN_DISP_C2_2_W49</SimpleData>
	</SchemaData></ExtendedData>
      <LineString><coordinates>117.316016512023,1.94155017499143,33.3980255126953 117.315956884228,1.94142949526705,34.6323318481445 117.315932968987,1.94138109262987,35.1273994445801 117.315832721794,1.94119730969971,36.1562690734863 117.315740823113,1.94097781399746,37.2807846069336 117.315668768206,1.94082238399535,37.8421592712402 117.315553903762,1.94063125082666,38.6115951538086 117.315459921704,1.94044641752314,38.9820098876953 117.31533671079,1.94025423452749,38.9831085205078 117.31518738637,1.93999694002155,39.2997512817383 117.315099671766,1.93982365731354,39.1156196594238 117.315006725502,1.93961256605983,38.5554542541504 117.314913785015,1.9394088255419,37.7756462097168 117.314822921107,1.93915677025521,36.3128051757812 117.314732056651,1.93890156526971,35.185489654541 117.314652690936,1.938717778314,33.8398323059082 117.314536769626,1.9384604774629,31.8433284759521 117.314474103635,1.93826723388665,31.1163444519043 117.314396817657,1.93805193858606,30.4557380676269 117.314309087636,1.9378177382584,30.1382465362549 117.314251647222,1.93765285193423,29.891300201416 117.314155565382,1.93741235156209,29.5093116760254 117.314077233015,1.9371886532065,29.6265335083008 117.314010403587,1.93705947871365,29.6453056335449 117.313903896716,1.93690300473189,30.1476764678955 117.313766075184,1.93673708308635,30.8786163330078 117.313554123761,1.93647034761389,33.2966423034668 117.31344135672,1.93631702444296,34.837028503418 117.313331729181,1.93621306532146,36.1353569030762 117.31315006859,1.93604610259453,37.6970062255859 117.31301329796,1.93593584690081,39.1086273193359 117.312885921979,1.93579618093514,40.89306640625 117.312737652951,1.93559140021496,43.5415191650391 117.312706329829,1.93553573978954,44.2631912231445 117.312627986995,1.93525322428832,46.8988914489746 117.312517262316,1.93483942838079,48.2894134521484 117.312438933015,1.93463043359296,49.1917724609375 117.312331364401,1.93435632559098,50.3219375610352 117.312287746949,1.9342710358262,50.7264595031738</coordinates></LineString>
  </Placemark>
  <Placemark id="road_data_base_r2__entities.8">
	<Style><LineStyle><color>ff0000ff</color></LineStyle><PolyStyle><fill>0</fill></PolyStyle></Style>
	<ExtendedData><SchemaData schemaUrl="#road_data_base_r2__entities">
		<SimpleData name="Layer">LABUANCERMIN_W52</SimpleData>
	</SchemaData></ExtendedData>
      <LineString><coordinates>117.282684290926,1.90314596454669,-7.36923313140869 117.282513460923,1.90313150430539,-8.73702144622803 117.282411842334,1.90312290244279,-9.55065727233887 117.282219768165,1.90309457572778,-10.9118299484253 117.282102851514,1.90306098528726,-11.7706413269043 117.281942083512,1.90297383727663,-13.12340259552 117.281741633646,1.90278376618971,-15.812201499939 117.281635139211,1.90265144549288,-17.2755031585693 117.281505674031,1.90248446860728,-19.0843925476074 117.281412746742,1.90233639164345,-20.4871444702148 117.281330258258,1.90218516215593,-21.5661792755127 117.281309374976,1.902149455362,-21.8328018188477 117.281150652481,1.90179447972702,-23.0392112731934 117.281038923088,1.90156343131965,-23.7108306884766 117.28085410524,1.90122211339666,-24.4374580383301 117.280769523968,1.90103832479124,-24.6888675689697 117.280676589369,1.900844034863,-24.9680423736572 117.280605583214,1.90069385260443,-25.3780002593994 117.280516829775,1.90052897059065,-25.5435371398926 117.28042599016,1.90037984293261,-25.722261428833 117.28028503244,1.90014564841232,-26.2572631835938 117.280178535924,1.89999862382601,-26.3916606903076 117.28006995382,1.89986420278865,-26.5970153808594 117.279981212743,1.89978229412715,-26.4978370666504 117.279868458774,1.89966887911684,-26.423770904541 117.279637743777,1.89951662448189,-25.9985752105713 117.279441480903,1.89940217165514,-25.7336940765381 117.279283843219,1.89929821741538,-25.6209125518799 117.278991544116,1.89917327966279,-25.3591728210449 117.278713857249,1.89903363572736,-25.5574703216553 117.278498809449,1.8989422939343,-25.5842247009277 117.278236782364,1.8988110495193,-25.9182929992676 117.278009202155,1.89868504972422,-25.8774509429932 117.277660523876,1.89848449708897,-26.9170398712158 117.27737552244,1.89829443899061,-29.4404602050781 117.277204308876,1.89815687812466,-31.3328094482422 117.276965237553,1.89796576116351,-34.0977058410645 117.276771048776,1.89776413425198,-36.2126274108887 117.276562247097,1.89756566157156,-37.8486099243164 117.27640982198,1.8974186440624,-38.909008026123 117.276219808098,1.89721386448784,-41.3201904296875 117.276077823713,1.89708260039653,-42.8672561645508 117.275846058046,1.89688307991609,-45.180980682373 117.275626816143,1.89667725577803,-46.8910179138184 117.275544341586,1.89660900042239,-47.006950378418 117.275369989071,1.89642207388779,-47.5573654174805 117.275276023983,1.89630655715993,-47.9285697937012 117.275215465901,1.89620783717285,-48.3705825805664</coordinates></LineString>
  </Placemark>
  <Placemark id="road_data_base_r2__entities.9">
	<Style><LineStyle><color>ff0000ff</color></LineStyle><PolyStyle><fill>0</fill></PolyStyle></Style>
	<ExtendedData><SchemaData schemaUrl="#road_data_base_r2__entities">
		<SimpleData name="Layer">LOMBOK_W45</SimpleData>
	</SchemaData></ExtendedData>
      <LineString><coordinates>117.255438255835,1.88182709127341,33.3440017700195 117.255739345074,1.88188337496748,33.5778541564941 117.256199180113,1.88196932987184,33.935001373291 117.257061287588,1.88230974168492,39.7509994506836 117.257749181328,1.8826219066755,44.2799987792969 117.258502814533,1.88285984687165,47.7120018005371 117.258879348481,1.88296708389074,49.9910011291504 117.25936156828,1.88331744642319,50.9169998168945 117.259482982547,1.88351547540754,51.1240005493164 117.259658907552,1.88371250668029,48.859001159668 117.260033802966,1.88413950287258,49.7130012512207 117.260494141979,1.88472820340087,49.7239990234375 117.260952794861,1.88531322862084,49.5690002441406 117.261450231058,1.88594645200261,50.7639999389648 117.261719508523,1.88658013380798,51.8019981384277 117.261744309264,1.88707602534065,53.648998260498 117.261656678257,1.88731748362829,52.2999992370605 117.26162468226,1.88755978166317,50.3460006713867 117.261483719235,1.88816963545305,48.7120018005371 117.261296086665,1.88860519786895,49.3810005187988 117.261243294719,1.88882714302747,49.5369987487793 117.261177016284,1.88905432059139,51.1209983825684 117.261121415991,1.88928644418434,52.060001373291 117.261113582956,1.88951771238788,54.3400001525879 117.261133928929,1.88974803318527,55.7049026489258</coordinates></LineString>
  </Placemark>
  <Placemark id="road_data_base_r2__entities.10">
	<Style><LineStyle><color>ff0000ff</color></LineStyle><PolyStyle><fill>0</fill></PolyStyle></Style>
	<ExtendedData><SchemaData schemaUrl="#road_data_base_r2__entities">
		<SimpleData name="Layer">IN_DISP_ZW_2_W05</SimpleData>
	</SchemaData></ExtendedData>
      <LineString><coordinates>117.272052722817,1.9240903203271,90.4740295410156 117.272042026812,1.9240747491324,90.3505325317383 117.271933942012,1.92391740176849,89.1026153564453 117.271846416569,1.92376962720858,88.0538177490234 117.271787011258,1.92358883590721,86.6870269775391 117.271769807108,1.92347721642071,85.7989807128906 117.271768225692,1.92336087208761,85.0191650390625 117.271779142198,1.92323352609345,84.0717010498047 117.271790052939,1.92305586439065,82.2194595336914 117.271830644843,1.92284675834604,80.0208129882812 117.271869675931,1.92263765255136,78.2110443115234 117.271918073193,1.92238137924846,76.3717346191406 117.271944599185,1.92215183552816,74.9334335327148 117.271978937464,1.92190499591182,73.1570816040039 117.272032018202,1.92159998320879,70.9052963256836 117.272071045321,1.92137987333806,69.7269592285156 117.272128810413,1.92107328738054,67.9130096435547 117.272170679313,1.9207807910705,66.0474853515625</coordinates></LineString>
  </Placemark>
  <Placemark id="road_data_base_r2__entities.11">
	<Style><LineStyle><color>ff0000ff</color></LineStyle><PolyStyle><fill>0</fill></PolyStyle></Style>
	<ExtendedData><SchemaData schemaUrl="#road_data_base_r2__entities">
		<SimpleData name="Layer">IN_DISP_J_4_W05</SimpleData>
	</SchemaData></ExtendedData>
      <LineString><coordinates>117.256520731649,1.8901676290156,46.2336349487305 117.256633771811,1.89033764115463,44.8503303527832 117.256672707623,1.89037257811385,44.4148788452148 117.2567484156,1.89044050863283,43.5681762695312 117.256864130956,1.89050059868596,42.6680068969727 117.257032049406,1.8905698849033,41.6406173706055 117.257435694637,1.89069978216461,39.7612457275391 117.257696181106,1.89079071591081,39.5870933532715 117.257894237281,1.89085891523778,39.4559326171875 117.258110595015,1.89094335509833,39.3242950439453 117.258392611472,1.89106027610662,39.0911674499512 117.258667093359,1.89115770579724,38.3711318969727 117.258837158401,1.89119450049102,37.9078941345215 117.259127774956,1.89123236157275,37.9375190734863 117.25934520151,1.89127023360652,38.0153503417969 117.259546483212,1.89131352394409,38.0223274230957 117.259710091562,1.89134599032944,38.1024589538574 117.259969498092,1.89140876425823,38.2311897277832 117.260066374609,1.8914553171516,38.2377738952637 117.260155719639,1.89151811888506,37.8006286621094 117.260183882683,1.89156086758567,37.4624366760254</coordinates></LineString>
  </Placemark>
  <Placemark id="road_data_base_r2__entities.12">
	<Style><LineStyle><color>ff0000ff</color></LineStyle><PolyStyle><fill>0</fill></PolyStyle></Style>
	<ExtendedData><SchemaData schemaUrl="#road_data_base_r2__entities">
		<SimpleData name="Layer">IN_DISP_J_2_W05</SimpleData>
	</SchemaData></ExtendedData>
      <LineString><coordinates>117.261208192227,1.90097552421755,82.6643753051758 117.26121887268,1.90101167462472,82.8093032836914 117.261294062209,1.90122592485069,84.2187194824219 117.261461123382,1.90152208543374,86.3631820678711 117.261699184398,1.90193586758797,89.2394485473633 117.261855803744,1.90220892266486,90.8022232055664 117.262033303617,1.9025050804643,92.2332000732422 117.262212897183,1.90283904983457,93.8937759399414 117.262363248417,1.90307849606321,95.3390502929688 117.262486460444,1.90332424804557,96.613395690918 117.262653516334,1.9035825965326,98.1513748168945 117.262837276214,1.90385564731381,99.9702529907227 117.263058621562,1.90417280472655,102.848289489746 117.263263262546,1.90447105870745,105.244285583496 117.263378108967,1.90461808321998,105.92472076416 117.263609862514,1.9047335805455,107.534133911133 117.263835342684,1.90478186044511,109.367095947266 117.264037856149,1.90481753951426,110.745803833008 117.264257068078,1.90483220948768,112.675590515137 117.264399147219,1.90483218756558,114.278434753418 117.264612007841,1.90459334263318,116.378845214844 117.264624024111,1.90453640313889,116.584739685059 117.264629740561,1.90450931612597,116.682685852051 117.264643287454,1.90435701943476,117.447601318359 117.264633878819,1.90426564523266,118.007011413574 117.264620293476,1.90416586841481,118.394874572754 117.264531524136,1.90389280321163,118.844184875488 117.264475125227,1.90369115354131,119.218856811523 117.264433342699,1.90350525675962,119.701972961426 117.264387388923,1.90334666873069,119.885330200195 117.264338295917,1.90313766603645,119.549057006836</coordinates></LineString>
  </Placemark>
  <Placemark id="road_data_base_r2__entities.13">
	<Style><LineStyle><color>ff0000ff</color></LineStyle><PolyStyle><fill>0</fill></PolyStyle></Style>
	<ExtendedData><SchemaData schemaUrl="#road_data_base_r2__entities">
		<SimpleData name="Layer">IN_DISP_ZW_1_W05</SimpleData>
	</SchemaData></ExtendedData>
      <LineString><coordinates>117.270557906311,1.92754308099217,79.8174362182617 117.270619339537,1.92744922894718,80.3520278930664 117.270645389646,1.92740943218944,80.5787200927734 117.270764115986,1.92723647117127,81.5221405029297 117.270903143917,1.92699433273713,83.1684646606445 117.271023427707,1.92677263722516,84.5997314453125 117.271123403738,1.926609110627,85.7513046264648 117.271248379781,1.9264220036445,86.8418121337891 117.271360863871,1.92629778225021,87.7339172363281 117.271523344138,1.92614368147565,89.2395401000977 117.271701452768,1.92599272346728,90.686393737793 117.27191393568,1.92586376808092,92.0398941040039 117.272142049142,1.92573795986351,93.0556335449219 117.272401406217,1.92556340353458,95.101692199707 117.272467026019,1.92550679554815,95.0731201171875 117.272521700265,1.92542189060103,95.1245269775391 117.272538876229,1.925341705191,94.9386978149414 117.272516980923,1.92520335598365,94.5500411987305 117.272407553427,1.92490308732062,93.4564590454102 117.272315326888,1.92467984883047,92.2582397460938 117.272141811054,1.92423652197819,91.0731964111328 117.272073994136,1.92412522813077,90.6170883178711</coordinates></LineString>
  </Placemark>
  <Placemark id="road_data_base_r2__entities.14">
	<Style><LineStyle><color>ff0000ff</color></LineStyle><PolyStyle><fill>0</fill></PolyStyle></Style>
	<ExtendedData><SchemaData schemaUrl="#road_data_base_r2__entities">
		<SimpleData name="Layer">IN_FRNT_ZW_1_W52</SimpleData>
	</SchemaData></ExtendedData>
      <LineString><coordinates>117.270550302102,1.92764801410082,78.9730529785156 117.27049716454,1.92773056476712,78.0779113769531 117.270454289398,1.92779717201693,77.3556518554688 117.270402119793,1.92794842401582,75.7997894287109 117.270429280533,1.92807445578707,74.679573059082 117.270539944774,1.92816476452278,73.6735229492188 117.270654771648,1.92817104777565,73.1679534912109 117.270813431463,1.92811850675271,72.7512359619141 117.271028458097,1.92805335346712,71.6666641235352 117.271247662268,1.92799870327778,71.7004318237305 117.271514884331,1.92794614534516,72.8908615112305 117.271543955244,1.92794552333131,73.0516662597656</coordinates></LineString>
  </Placemark>
  <Placemark id="road_data_base_r2__entities.15">
	<Style><LineStyle><color>ff0000ff</color></LineStyle><PolyStyle><fill>0</fill></PolyStyle></Style>
	<ExtendedData><SchemaData schemaUrl="#road_data_base_r2__entities">
		<SimpleData name="Layer">IN_DISP_J_3_W05</SimpleData>
	</SchemaData></ExtendedData>
      <LineString><coordinates>117.261004489,1.89585605389199,68.4422378540039 117.261134798883,1.8958341805617,68.7006072998047 117.261288635233,1.89580835878855,69.0056304931641 117.261607233166,1.89580614359334,69.5995178222656 117.261966732477,1.89582125211921,70.1814575195312 117.262375749186,1.89588183599875,70.7359008789062 117.262746021273,1.89594675929734,71.5011978149414 117.26341767414,1.89606578659467,72.4015121459961 117.263682465669,1.89613722402109,72.5635070800781 117.263947260235,1.89624331477989,72.668830871582 117.264148506087,1.89631746098903,72.1099090576172 117.264398704908,1.89600801158927,71.1200180053711 117.26449211948,1.89589869851588,70.8067855834961 117.264517799723,1.89586864868614,70.7206726074219 117.264671330294,1.89569823402748,70.2448043823242 117.264813382558,1.8955307079856,69.9016952514648 117.265055876416,1.89526353333152,69.7864151000977 117.265202234949,1.89510611613885,69.7677230834961 117.26537728667,1.89488949067759,69.4262237548828 117.265489207755,1.89476673435617,69.2008819580078 117.265595378637,1.89459488240476,68.999137878418 117.26575463205,1.89429595179641,68.5437469482422 117.265872280968,1.89409088701798,68.2629928588867 117.26598849332,1.89388004652661,67.949951171875 117.26611475065,1.89366776215373,67.4635238647461 117.266208012206,1.89352912321947,67.2007064819336 117.266355798221,1.89331972237075,66.8093719482422 117.266494975314,1.89312909516934,66.0566101074219 117.266622669517,1.89292547113344,65.2297515869141 117.266735862034,1.8927582918083,64.8528518676758</coordinates></LineString>
  </Placemark>
  <Placemark id="road_data_base_r2__entities.16">
	<Style><LineStyle><color>ff0000ff</color></LineStyle><PolyStyle><fill>0</fill></PolyStyle></Style>
	<ExtendedData><SchemaData schemaUrl="#road_data_base_r2__entities">
		<SimpleData name="Layer">IN_FRNT_JH_1_W52</SimpleData>
	</SchemaData></ExtendedData>
      <LineString><coordinates>117.245729603999,1.89128191191209,63.3228492736816 117.245538089504,1.89113386087383,62.769100189209 117.245386270715,1.89101649505698,62.3301239013672 117.245254730628,1.89089520356245,61.4366149902344 117.245123973058,1.89079675727679,60.9750328063965 117.244965815923,1.89068886132245,60.9490966796875 117.244853070993,1.89062900854457,60.6516151428223 117.244712142256,1.89055577017576,60.5462074279785 117.244524235316,1.89045969311575,59.982292175293 117.244346511046,1.89038882331178,59.1033477783203 117.244174263908,1.89030298607014,57.7837562561035 117.244017669079,1.89018957448872,56.6371536254883 117.243875171494,1.89008955268729,55.2757568359375 117.243826960737,1.89005914469795,54.745418548584</coordinates></LineString>
  </Placemark>
  <Placemark id="road_data_base_r2__entities.17">
	<Style><LineStyle><color>ff0000ff</color></LineStyle><PolyStyle><fill>0</fill></PolyStyle></Style>
	<ExtendedData><SchemaData schemaUrl="#road_data_base_r2__entities">
		<SimpleData name="Layer">IN_FRNT_CD_2_W05</SimpleData>
	</SchemaData></ExtendedData>
      <LineString><coordinates>117.275004551092,1.89584551824923,-49.485725402832 117.27477920297,1.89549027406119,-50.0534629821777 117.274770670322,1.89547689912987,-50.0615768432617 117.274675652244,1.89530256305588,-50.0701103210449 117.27459211776,1.89513137705286,-49.698070526123 117.274511706972,1.89491082680914,-49.2300758361816 117.274435469819,1.89467977320542,-49.1268997192383 117.274390558738,1.89452223562778,-49.2774200439453 117.274335201023,1.89430378191323,-49.1154518127441 117.274319519724,1.89415779152776,-49.1831130981445 117.274325762796,1.89403175386208,-49.2286529541016 117.274329929577,1.89397083760913,-49.1665916442871 117.274380003927,1.89378072325535,-49.076358795166 117.274445741721,1.89362316805215,-49.2373695373535 117.274529220235,1.89343935219825,-49.2696876525879 117.274590775804,1.89323768416177,-49.071907043457 117.274634598133,1.8931168929584,-49.0194664001465 117.274700321339,1.8928669096848,-48.8803024291992 117.274743090748,1.89268835276202,-48.5659637451172 117.274801511691,1.89246672901239,-48.1339149475098 117.274859947339,1.89233858249268,-47.8633880615234 117.274951790176,1.89224299229057,-47.6619720458984 117.275048856647,1.89216945579107,-47.676643371582 117.275177238313,1.89209381154479,-47.8332595825195 117.275329627865,1.89201921704001,-47.7984199523926 117.275549862893,1.89191520195361,-47.755256652832 117.275777403036,1.89179438137598,-47.4665489196777 117.27601120211,1.89165570409969,-45.5354804992676 117.276138538048,1.89156850810961,-44.678150177002 117.276228299086,1.89147579621138,-43.2474479675293 117.276480130423,1.89127432075461,-41.5636596679688 117.276680305197,1.89110534230341,-40.3115348815918 117.276858939195,1.89087138758083,-39.5699157714844 117.276994517962,1.89061794518116,-39.3748397827148 117.277060708542,1.89050763095522,-39.3889122009277 117.277125795225,1.8903991590165,-39.4027481079102 117.277278596093,1.89016520841469,-39.7076988220215 117.277390501291,1.88996375533342,-38.8172645568848 117.277530385512,1.8897016472276,-37.6263465881348 117.277551904669,1.88965832543707,-37.3406677246094 117.277678855496,1.88929008816622,-34.8155364990234 117.277674533744,1.88919695179739,-34.7063827514648 117.277646536745,1.88911681340823,-34.3893890380859 117.277517341137,1.88889590448991,-33.5415725708008 117.277321418347,1.88871616000994,-32.8925361633301 117.277172863107,1.88856239846235,-32.9867668151855 117.276972623828,1.88832200630459,-33.1389236450195 117.276880032718,1.88814007839209,-32.6730041503906 117.276826175049,1.88788450177271,-31.8839855194092 117.27683906892,1.88774154389959,-31.1971054077148 117.276867023363,1.8875531006875,-30.2509593963623 117.2769107661,1.88740256842981,-28.5140762329102</coordinates></LineString>
  </Placemark>
  <Placemark id="road_data_base_r2__entities.18">
	<Style><LineStyle><color>ff0000ff</color></LineStyle><PolyStyle><fill>0</fill></PolyStyle></Style>
	<ExtendedData><SchemaData schemaUrl="#road_data_base_r2__entities">
		<SimpleData name="Layer">KANIUNGAN_W05</SimpleData>
	</SchemaData></ExtendedData>
      <LineString><coordinates>117.286113405909,1.93002917666747,61.1078491210938 117.285699395968,1.92998435133588,62.0349540710449 117.285617560026,1.92997359522789,62.2866477966309 117.285407735958,1.92994212153345,62.9635734558105 117.285158241909,1.92988544698102,64.3542251586914 117.284945282895,1.92982666680276,64.8047866821289 117.284762591178,1.92973742153521,65.0480499267578 117.284604948509,1.92961666400685,65.4840240478516 117.284435814262,1.92945914682373,65.8164978027344 117.284298002559,1.92933313458682,66.1494216918945 117.284144528227,1.92918296660595,66.6261291503906 117.284036993787,1.9290863578489,67.0742111206055 117.283891880217,1.92898345268043,67.4211578369141 117.283718576146,1.92885849550241,68.0127716064453 117.283531702287,1.92872723897154,68.5690078735352 117.283412687681,1.92863588342631,68.8381881713867 117.283314542569,1.92851406440869,69.5162734985352 117.283173593146,1.92834288997056,71.0636138916016 117.28305769552,1.9281832631655,72.0290298461914 117.282900034552,1.92795012294134,73.5244903564453 117.282703751548,1.92773589451524,75.2702102661133 117.282465718932,1.92755108107102,76.3357162475586 117.282233951797,1.92738097139267,77.0804214477539 117.281987564796,1.92717305281667,78.3844375610352 117.281734916568,1.9269756384665,79.6415710449219 117.281323590417,1.92671313162437,82.2703094482422 117.281158636975,1.92657872032221,83.3217544555664 117.280941463539,1.92627837037959,85.3549880981445 117.280855837943,1.92610823622258,85.7218551635742 117.280757681195,1.92590659444366,85.7451400756836 117.280667869372,1.92566293945542,85.5209197998047 117.28058222907,1.92540247948188,85.1697082519531 117.280523743727,1.9252218370189,85.2006072998047 117.280369183882,1.92481224542294,84.5619812011719 117.280279392085,1.92469042533048,84.5641555786133 117.280047614928,1.92445519644122,85.2057037353516 117.27991190018,1.92438169788658,85.7435684204102 117.279680146454,1.92428300762619,86.7157669067383 117.279364891324,1.92423684669419,87.6118621826172 117.279089308437,1.9242242883008,88.122917175293 117.278855482036,1.92422432676493,87.5457305908203 117.278475518283,1.92424749564892,87.6770248413086 117.278032922709,1.92426647364648,87.6990661621094 117.277786568577,1.92425601133684,87.9038467407227 117.277702003565,1.92424792177731,88.0261383056641 117.277508418868,1.92421958573483,88.4834671020508 117.277483381578,1.92421558202609,88.5158920288086 117.277302158143,1.92418660284216,88.7505874633789 117.276997452073,1.9241394866507,89.1981658935547 117.276767750651,1.92410650751844,90.1670684814453 117.276519305989,1.92409868925425,92.2019424438477 117.276223980414,1.92409401945462,95.11962890625 117.275956785572,1.92409563559225,97.1656265258789 117.275630213024,1.92409097077281,98.7073440551758 117.275242692095,1.92405958971128,99.1242523193359 117.274912990754,1.92403763503778,99.4238739013672 117.274573919533,1.92403926260533,98.6627197265625 117.274302035641,1.92404087924035,98.2744674682617 117.273981710699,1.92403621309089,97.2977600097656 117.273703574013,1.9240331127148,96.7817535400391 117.27336762727,1.92402530810376,96.3682632446289 117.273017614458,1.92402379183985,95.181999206543 117.27268635308,1.92402069984706,93.4743423461914 117.272677071765,1.92402156220606,93.4067764282227</coordinates></LineString>
  </Placemark>
  <Placemark id="road_data_base_r2__entities.19">
	<Style><LineStyle><color>ff0000ff</color></LineStyle><PolyStyle><fill>0</fill></PolyStyle></Style>
	<ExtendedData><SchemaData schemaUrl="#road_data_base_r2__entities">
		<SimpleData name="Layer">IN_FRNT_JA_1_W05</SimpleData>
	</SchemaData></ExtendedData>
      <LineString><coordinates>117.255153128944,1.88175229567562,34.5639801025391 117.255097337919,1.88173430460949,34.7156753540039 117.25495507454,1.88168842727104,35.1024894714355 117.2545363607,1.88154445040373,36.9718246459961 117.254247889371,1.88144594176996,38.111255645752 117.253950807303,1.88134634762904,38.9614639282227 117.253732299511,1.88126082506547,39.5776252746582 117.253273760663,1.8811081908889,40.8174018859863 117.253046645904,1.88104757559175,41.5058746337891 117.2525988773,1.88094475627909,45.2369422912598 117.252400823822,1.88088630125572,46.4339065551758 117.252323320421,1.88083107999154,46.328483581543 117.25227487624,1.88077152530618,45.9613304138184 117.252237193656,1.88069463903392,45.544376373291 117.252190894561,1.88057659576567,45.4168548583984 117.252163968285,1.8804531381901,45.5909156799316 117.252152105717,1.88029394050267,46.3993949890137 117.252128405466,1.88014124273989,48.2691459655762 117.252100397185,1.87998096509798,47.7814521789551 117.252070246331,1.8798813317955,48.0013847351074 117.252022872558,1.8797773718003,47.9873161315918</coordinates></LineString>
  </Placemark>
  <Placemark id="road_data_base_r2__entities.20">
	<Style><LineStyle><color>ff0000ff</color></LineStyle><PolyStyle><fill>0</fill></PolyStyle></Style>
	<ExtendedData><SchemaData schemaUrl="#road_data_base_r2__entities">
		<SimpleData name="Layer">IN_FRNT_JW_1_W05</SimpleData>
	</SchemaData></ExtendedData>
      <LineString><coordinates>117.252183965923,1.89860668353158,40.571720123291 117.252059974908,1.89865766027557,39.9801559448242 117.251878302791,1.89873235441428,39.1133918762207 117.251508060924,1.89887247564618,35.8256530761719 117.251064632303,1.89904582079257,34.2278099060059 117.250681480611,1.8992263753071,34.2490921020508 117.250387296503,1.8993404924041,34.4323997497559 117.250031414712,1.89953692829961,34.8867034912109 117.249721451748,1.89970736463514,35.0164451599121 117.249428712878,1.89988935029578,34.7345085144043 117.249236423464,1.90001067289341,34.5051155090332 117.248989597906,1.90012045150573,34.9986915588379 117.248711195324,1.90020713090992,35.9875602722168 117.248270628266,1.90031693968518,36.0800437927246 117.247995094052,1.90038340168038,36.3191680908203 117.247779832084,1.90043108479595,37.0974464416504 117.247313435153,1.9005654431484,37.5782852172852 117.247033595147,1.90063335236488,38.0647010803223 117.24684990345,1.90066514534147,38.8471717834473 117.246439466073,1.90072585276287,40.2104110717773 117.246059164234,1.9007692279549,40.1403617858887 117.245756356841,1.90080681382585,40.345043182373 117.245485125044,1.90085017327788,40.4052276611328 117.245229679798,1.90089930416399,39.9112777709961 117.245050296973,1.90095275776857,39.0104751586914 117.244885264224,1.90100620930871,37.781063079834 117.244744626588,1.9010423295385,37.4061012268066 117.244464787775,1.9011203457005,36.6042366027832 117.244169159115,1.90116948216026,34.7047958374023 117.243906538428,1.90122439202932,33.0871963500977 117.243427221374,1.90132265105192,31.1500949859619 117.243077059834,1.90139201195972,29.8043098449707 117.242800089166,1.90144836823781,29.4563789367676 117.242511640969,1.90154515546773,29.375883102417 117.242203103368,1.90165061050361,29.7087860107422 117.241951965878,1.90172284629095,29.7837142944336 117.241729529736,1.90177197203034,29.4115772247314 117.241313356007,1.90187455521223,31.1076469421387 117.240944541712,1.90196124615535,34.3545799255371 117.240779639127,1.90200546795331,35.3278656005859</coordinates></LineString>
  </Placemark>
  <Placemark id="road_data_base_r2__entities.21">
	<Style><LineStyle><color>ff0000ff</color></LineStyle><PolyStyle><fill>0</fill></PolyStyle></Style>
	<ExtendedData><SchemaData schemaUrl="#road_data_base_r2__entities">
		<SimpleData name="Layer">IN_DISP_J_5_W05</SimpleData>
	</SchemaData></ExtendedData>
      <LineString><coordinates>117.261344200842,1.89063888650755,54.2676124572754 117.261475847313,1.89072222111497,53.2460060119629 117.261477679014,1.89072279732632,53.2319755554199 117.26175000568,1.89080831273415,51.1460914611816 117.262089064894,1.89089923386451,48.8069648742676 117.262368920633,1.89095225702498,48.4459266662598 117.262786549393,1.89102258916679,48.8832931518555 117.263016893927,1.89107020606212,48.9831275939941 117.263475421364,1.89112536859431,49.8372192382812 117.263814472507,1.89116213697219,50.2221946716309 117.264064184387,1.89117509517265,50.8651161193848 117.264341879896,1.89116855445396,51.7383003234863 117.264521627458,1.89117286051248,52.2875137329102 117.26470568443,1.89119340696939,52.7243156433105 117.264862835521,1.89123237204319,53.6306419372559 117.264970474172,1.89127242479403,54.4319229125977 117.265085650607,1.8913233081821,55.3508377075195 117.265198677475,1.89140018468422,56.6130523681641 117.26532355066,1.89151279502711,57.9281349182129 117.265407517177,1.89160158787183,58.7972030639648 117.265453814489,1.8916925533105,59.421459197998 117.265473204754,1.89179435027326,60.1096229553223 117.26547214206,1.89189398578999,60.9067878723145 117.265440943069,1.89198929454923,61.753360748291 117.265400477964,1.892030993497,62.2562103271484</coordinates></LineString>
  </Placemark>
  <Placemark id="road_data_base_r2__entities.22">
	<Style><LineStyle><color>ff0000ff</color></LineStyle><PolyStyle><fill>0</fill></PolyStyle></Style>
	<ExtendedData><SchemaData schemaUrl="#road_data_base_r2__entities">
		<SimpleData name="Layer">IN_FRNT_C2_1_W52</SimpleData>
	</SchemaData></ExtendedData>
      <LineString><coordinates>117.322930839516,1.93934901472419,30.5011291503906 117.322970193029,1.939172010704,30.3755989074707 117.322979848054,1.93908118037955,30.499662399292 117.322950589521,1.93891733825194,30.7276973724365 117.322877484215,1.93873565115755,30.7180271148682 117.322810649322,1.93858126970778,30.9906311035156 117.322703089338,1.9383628288761,31.3809986114502 117.322572563154,1.93814649295965,31.5215129852295 117.322446216926,1.93795431339446,31.8999729156494 117.322298983453,1.93770647273435,33.0399475097656 117.322180995757,1.93753214491601,33.0901870727539 117.322050474474,1.93734101526251,32.6452217102051 117.321885501926,1.93713098853452,32.5224342346191 117.321672510151,1.93689471215003,32.230411529541 117.321478315996,1.93671514859292,32.2468452453613 117.321385143471,1.93665738308585,32.4487457275391</coordinates></LineString>
  </Placemark>
  <Placemark id="road_data_base_r2__entities.23">
	<Style><LineStyle><color>ff0000ff</color></LineStyle><PolyStyle><fill>0</fill></PolyStyle></Style>
	<ExtendedData><SchemaData schemaUrl="#road_data_base_r2__entities">
		<SimpleData name="Layer">IN_FRNT_C2_2_W52</SimpleData>
	</SchemaData></ExtendedData>
      <LineString><coordinates>117.32406168082,1.95127179352913,11.0930004119873 117.323648481765,1.95061319387351,11.0823574066162 117.323440496739,1.95028168439294,11.0769996643066 117.322886742605,1.94924364072021,9.78499984741211 117.322214941311,1.94804263091925,8.40200042724609 117.321416605867,1.94637402472246,9.58600044250488 117.320867308345,1.94511333640709,10.9770002365112 117.320387737262,1.94406198923837,12.2250003814697 117.320028459342,1.94315904735452,13.9709997177124 117.319755778348,1.94252735951639,19.1070003509521 117.319638849046,1.94233216300614,20.7849998474121 117.31948483268,1.94215732943811,21.1219997406006 117.319280251675,1.94205629560907,20.886999130249 117.318963293169,1.94205762804818,20.9249992370606 117.318734000071,1.94203745701283,21.871000289917 117.318285521011,1.94195131214357,24.3819999694824 117.318258559198,1.94195253648404,24.4859790802002</coordinates></LineString>
  </Placemark>
  <Placemark id="road_data_base_r2__entities.24">
	<Style><LineStyle><color>ff0000ff</color></LineStyle><PolyStyle><fill>0</fill></PolyStyle></Style>
	<ExtendedData><SchemaData schemaUrl="#road_data_base_r2__entities">
		<SimpleData name="Layer">MALIOBORO_WK52</SimpleData>
	</SchemaData></ExtendedData>
      <LineString><coordinates>117.294424886125,1.90313346178245,49.556999206543 117.294424886221,1.90313402722578,49.5576133728027</coordinates></LineString>
  </Placemark>
  <Placemark id="road_data_base_r2__entities.25">
	<Style><LineStyle><color>ff0000ff</color></LineStyle><PolyStyle><fill>0</fill></PolyStyle></Style>
	<ExtendedData><SchemaData schemaUrl="#road_data_base_r2__entities">
		<SimpleData name="Layer">MALIOBORO_WK52</SimpleData>
	</SchemaData></ExtendedData>
      <LineString><coordinates>117.282919159157,1.90315170283489,-4.80044603347778 117.283259398855,1.90315366547243,-1.55860066413879 117.283419165014,1.90314794377046,-0.538103520870209 117.283643591204,1.90314370558833,0.208227023482323 117.283854451053,1.90315312310456,0.585151135921478 117.284114374783,1.9031688340721,1.14953899383545 117.284630046183,1.90322231441153,2.74673914909363 117.28503089171,1.90325480722543,5.04488277435303 117.285457833548,1.90329884854301,7.82641839981079 117.285597711416,1.90330827765723,8.87725830078125 117.286041355889,1.90334811607678,12.7997951507568 117.286395227545,1.90337536395754,15.6788949966431 117.286786672392,1.90337634879006,18.5048046112061 117.287176028543,1.90337103227794,21.8687057495117 117.287396279572,1.90336784456845,23.9524707794189 117.287753274435,1.90335203067569,26.0716533660889 117.288130102088,1.90333096093515,28.7645721435547 117.288427603832,1.90334981682969,31.3554096221924 117.288821139915,1.90337285646112,34.471794128418 117.289237643456,1.90340324510157,37.23779296875 117.289690678898,1.90342942639685,40.2228775024414 117.290087347881,1.90345456684172,42.6542930603027 117.290330569133,1.90347553101352,44.0332527160645 117.290956888433,1.90352058742226,46.0828895568848 117.29105292312,1.90352687382762,46.2268028259277 117.291408881061,1.90355937274147,47.4683990478516 117.291821208434,1.90358450901041,48.878360748291 117.291973611237,1.90358868412801,49.3833236694336 117.29227424209,1.9036001869395,49.7118797302246 117.292701177794,1.90359486275971,49.5212821960449 117.292843140794,1.90358958607486,49.4998970031738 117.293253367837,1.90355275549981,49.1896743774414 117.293426644949,1.9035317205109,49.566577911377 117.293657330151,1.90350542323337,50.1852798461914 117.293964738654,1.90345863201533,50.0580101013184 117.294004396434,1.90345401883917,50.021656036377</coordinates></LineString>
  </Placemark>
  <Placemark id="road_data_base_r2__entities.26">
	<Style><LineStyle><color>ff0000ff</color></LineStyle><PolyStyle><fill>0</fill></PolyStyle></Style>
	<ExtendedData><SchemaData schemaUrl="#road_data_base_r2__entities">
		<SimpleData name="Layer">PANARUKAN_W05</SimpleData>
	</SchemaData></ExtendedData>
      <LineString><coordinates>117.252654369013,1.8980631331122,41.2695503234863 117.253454020404,1.89781959120123,40.8034286499023 117.254046879489,1.89767036751279,40.6627731323242 117.254508242771,1.89756102699098,41.3911170959473 117.254824629525,1.89753624190749,42.2632369995117 117.254847594613,1.89752847909345,42.2741661071777 117.255061832381,1.89788141106853,42.35595703125 117.255063477238,1.89798322189223,42.63232421875 117.255066369299,1.89816215396155,43.1180458068848 117.25511587785,1.89853717817377,45.2627944946289 117.255219889402,1.89885508431745,47.2550392150879 117.255343559837,1.89910343776395,49.141658782959 117.255550965003,1.89935686775009,51.6826858520508 117.255807822366,1.89960025368648,53.9249687194824 117.256044438535,1.89977409283259,55.0101585388184 117.256345697748,1.9000571945733,57.2493057250977 117.256667183684,1.90031046599133,59.2575454711914 117.256924028866,1.90046945903074,59.3755035400391 117.257239881982,1.90063324946873,60.5252227783203 117.257536055806,1.90072763440375,60.744384765625 117.257951357643,1.90075245163996,61.990161895752 117.258380698447,1.90070757555465,62.3704986572266 117.258785881044,1.900707514528,64.211799621582 117.259126436725,1.90070746316118,65.3917236328125 117.259407991177,1.90074728451782,66.7889175415039 117.259615371103,1.90082669819692,67.7305908203125 117.25981544698,1.90091855274415,68.655403137207 117.259968319649,1.90102539870721,69.2892532348633 117.260156038756,1.9011595220941,70.3177185058594 117.260375804874,1.90139047304941,71.1013259887695 117.260625366811,1.90169591681854,72.3961944580078 117.26080353697,1.90185986878896,73.5000686645508 117.260942921822,1.90196275857965,75.7829971313477 117.260969697223,1.90202048511225,76.3764343261719 117.261143611382,1.9023954347932,80.2310028076172 117.261429158735,1.90282583625366,85.4029998779297 117.261803483722,1.90316094662321,88.109001159668 117.262574678308,1.90426217395393,95.2529983520508 117.262967028239,1.9048692602006,98.5759963989258 117.263123873315,1.90522687997943,100.34700012207 117.26375287285,1.90621390850897,104.981002807617 117.26389582848,1.9063396151165,105.846420288086</coordinates></LineString>
  </Placemark>
  <Placemark id="road_data_base_r2__entities.27">
	<Style><LineStyle><color>ff0000ff</color></LineStyle><PolyStyle><fill>0</fill></PolyStyle></Style>
	<ExtendedData><SchemaData schemaUrl="#road_data_base_r2__entities">
		<SimpleData name="Layer">KINTAMANI_W39</SimpleData>
	</SchemaData></ExtendedData>
      <LineString><coordinates>117.269294582916,1.8972715181915,65.8820037841797 117.269314501068,1.89705147097828,65.2369995117188 117.269330031514,1.8968311152244,65.0199966430664 117.269337451171,1.89661029248125,64.9280014038086 117.269315604136,1.89639116623488,65.2289962768555 117.269241688133,1.89618310301788,65.3919982910156 117.269163169082,1.89597676114486,65.3529968261719 117.26908465938,1.8957704082198,65.1750030517578 117.268999019602,1.89556701394262,64.8949966430664 117.268908102113,1.89536587563442,64.890998840332 117.268817148703,1.8951647549937,65.2750015258789 117.268725988435,1.89496373156277,64.9059982299805 117.26863482819,1.89476270149723,64.7379989624023 117.268543542304,1.89456174433232,64.5179977416992 117.268453245308,1.89436032316366,64.3219985961914 117.26836426097,1.8941583054149,64.5130004882812 117.26827522288,1.89395632521554,64.8560028076172 117.268186175758,1.89375434500957,65.1839981079102 117.268097272434,1.89355230071892,65.3499984741211 117.268007389047,1.89335069832634,65.4599990844727 117.267916651536,1.8931494781753,65.3270034790039 117.267831120162,1.89294603076866,64.8639984130859 117.267738719517,1.89274630177844,64.5540008544922 117.267599216965,1.89257590370024,64.1620025634766 117.267449420327,1.89241433565069,63.2519989013672 117.267302230969,1.892250379501,62.4939994812012 117.267143013009,1.89209859551228,62.6389999389648 117.266976971314,1.89195399326747,61.8639984130859 117.266807253102,1.89181385328375,61.8899993896484 117.26662340303,1.89169317471512,62.7130012512207 117.266440703797,1.89157059640432,62.5359992980957 117.266258031331,1.89144795401191,62.1559982299805 117.266072832955,1.89132922150654,61.673999786377 117.265883805222,1.89121679560248,61.0330009460449 117.265690336883,1.89111232192556,60.117000579834 117.265492068514,1.89101742839253,58.8370018005371 117.265286924206,1.89093884102251,57.1279983520508 117.265076261536,1.89087651101232,55.3300018310547 117.264864556439,1.89081782781179,53.9710006713867 117.264647271946,1.89078781746926,52.2900009155273 117.264428828804,1.89076603714929,50.7360000610352 117.264211481588,1.89073733655958,49.8769989013672 117.263996164612,1.8906964056763,50.0699996948242 117.263780065766,1.89065813203351,50.7410011291504 117.263567462087,1.89060280613034,51.2280006408691 117.263351462318,1.89056570085469,51.7309989929199 117.263136019472,1.89052465943894,52.2820014953613 117.262917414681,1.89050381104561,52.6699981689453 117.262698765017,1.89048380638057,52.5180015563965 117.262480375813,1.89046233281588,53.0169982910156 117.262264681224,1.89042083190089,54.1059989929199 117.262048959492,1.89037943698255,53.7630004882812 117.261833354722,1.89033753620983,53.7519989013672 117.261615414329,1.89031067306582,53.931999206543 117.261397312473,1.89028485687459,53.6809997558594 117.26117922844,1.89025892579617,52.9560012817383 117.260961054524,1.89023378985996,53.9879989624023 117.260742431794,1.89021299640434,53.5859985351562 117.260523880889,1.89019175011166,53.1710014343262 117.260307683098,1.89015300777025,52.6699981689453 117.260092734295,1.89010817563383,51.5950012207031 117.259879232215,1.89005651152612,50.6259994506836 117.259670969329,1.88998692464324,50.2389984130859 117.259464333417,1.88991210932993,49.8940010070801 117.259258739819,1.88983447985992,49.3610000610352 117.259054134781,1.88975421736065,48.6209983825684 117.258849539087,1.88967394599797,47.9739990234375 117.258645096467,1.88959328584192,46.5839996337891 117.258440105338,1.8895144788992,46.2760009765625 117.258228085684,1.88945742274033,46.2120018005371 117.258009642671,1.88943596847135,45.4179992675781 117.257790150514,1.88943419226476,46.6669998168945 117.257570956551,1.88944122677041,45.3709983825684 117.257355418365,1.88948341990977,45.4860000610352 117.257141976273,1.88953475702084,45.7280006408691 117.256931584498,1.88959805635386,45.9099998474121 117.25672074247,1.88965986039265,46.2760009765625 117.256510944196,1.88972511214335,47.0379981994629 117.256301739439,1.8897923008743,46.7459983825684 117.256092327667,1.88985881814651,45.7280006408691 117.255884310388,1.88992918286712,44.5180015563965 117.255683003129,1.8900174839973,42.5200004577637 117.255478862455,1.89009865782315,41.3730010986328 117.255322603158,1.89024991325723,40.9420013427734 117.255205030434,1.89043587600141,40.148998260498 117.25513942266,1.89064651186339,39.693000793457 117.255096862001,1.89086308811986,38.4329986572266 117.255061196657,1.89108111010178,36.7330017089844 117.255028320369,1.89129957784305,34.9169998168945 117.254997708472,1.89151838540026,33.4679985046387 117.254966953879,1.89173716868202,32.6399993896484 117.254934589071,1.89195571586328,31.6319999694824 117.254897324457,1.89217343989723,30.6240005493164 117.254860356199,1.89239122794164,29.7970008850098 117.254819233403,1.89260819272851,29.1450004577637 117.254777194085,1.89282502291568,28.5429992675781 117.254739280755,1.8930426653206,28.3840007781982 117.254701080937,1.89326025475725,28.5380001068115 117.254662981256,1.89348715414746,30.0389995574951 117.25463062288,1.89368989536419,31.2350006103516 117.254600009718,1.89389288149653,32.484001159668 117.254582011495,1.89409742073933,33.4410018920898 117.25457569285,1.89430207752965,34.2550010681152 117.25459802142,1.89450570742471,34.8110008239746 117.254642963371,1.89470601198392,35.3390007019043 117.254687906432,1.89490630770485,35.8680000305176 117.254739645599,1.89510489503763,36.701000213623 117.254783976114,1.89530442219067,37.5690002441406 117.25479026351,1.89550947468931,38.173999786377 117.254769145892,1.89571370737207,38.9739990234375 117.254738747878,1.89591672881325,39.9900016784668 117.254707135891,1.89611959802887,41.0349998474121</coordinates></LineString>
  </Placemark>
  <Placemark id="road_data_base_r2__entities.28">
	<Style><LineStyle><color>ff0000ff</color></LineStyle><PolyStyle><fill>0</fill></PolyStyle></Style>
	<ExtendedData><SchemaData schemaUrl="#road_data_base_r2__entities">
		<SimpleData name="Layer">ANYER_W19</SimpleData>
	</SchemaData></ExtendedData>
      <LineString><coordinates>117.251277510532,1.89788465414912,34 117.252495262886,1.89759496772609,42.5413551330566 117.252949857353,1.8973116128004,41.0651054382324 117.253105496602,1.89712541702504,41.1407356262207 117.253361711099,1.89681735296085,41.0468292236328 117.253586469894,1.89661107366407,40.5647163391113 117.253823599268,1.89645455170753,40.4389686584473 117.254097826348,1.89635018657553,41.1215972900391 117.254165822037,1.89633024458688,41.2365837097168 117.254314738206,1.89628654193637,41.4876327514648 117.254734541236,1.89635532280682,43.8219985961914 117.25492845694,1.89659730466318,43.1457595825195 117.255173506228,1.89679884957044,43.2582702636719 117.255443272077,1.89693041691613,42.4930000305176 117.255598947699,1.8969942891039,42.7112731933594 117.255645032185,1.89701322467096,42.7760009765625 117.255845667079,1.89708726816587,42.5634536743164 117.25606596442,1.89711649717501,42.8540916442871 117.25606596442,1.89711649717501,42.8540916442871 117.257137040797,1.89682993941751,45.539794921875 117.257695606052,1.89659463066082,50.6567459106445 117.258106946426,1.89643949567846,53.5893096923828 117.258377802499,1.89634304663689,55.1371841430664 117.258700357493,1.89623019187771,56.4562149047852 117.259104400756,1.89613372270453,57.670482635498 117.259389878805,1.89611007236877,58.2459564208984 117.259511265737,1.8961172634936,58.2490005493164 117.259982754513,1.89608312426886,64.911003112793 117.260676236184,1.89614196701251,68.7419967651367 117.260811726618,1.89651132343297,69.3349990844727 117.260851730538,1.89720525974286,70.4410018920898 117.261096928619,1.89839435333442,72.7289962768555 117.261043158818,1.89959084306931,77.5350036621094 117.261125292368,1.90016051638979,79.5429992675781</coordinates></LineString>
  </Placemark>
</Folder>
</Document></kml>
