<?xml version="1.0" encoding="UTF-8"?>
<kml xmlns="http://www.opengis.net/kml/2.2">
  <Document>
    <name>HAULING_ROAD_W</name>
    <Style id="poly-FF0000-1000-0-normal">
      <LineStyle>
        <color>ff0000ff</color>
        <width>1</width>
      </LineStyle>
      <PolyStyle>
        <color>000000ff</color>
        <fill>1</fill>
        <outline>1</outline>
      </PolyStyle>
    </Style>
    <Style id="poly-FF0000-1000-0-highlight">
      <LineStyle>
        <color>ff0000ff</color>
        <width>1.5</width>
      </LineStyle>
      <PolyStyle>
        <color>000000ff</color>
        <fill>1</fill>
        <outline>1</outline>
      </PolyStyle>
    </Style>
    <StyleMap id="poly-FF0000-1000-0">
      <Pair>
        <key>normal</key>
        <styleUrl>#poly-FF0000-1000-0-normal</styleUrl>
      </Pair>
      <Pair>
        <key>highlight</key>
        <styleUrl>#poly-FF0000-1000-0-highlight</styleUrl>
      </Pair>
    </StyleMap>
    <Placemark>
      <name>JL_TABLIGH</name>
      <description><![CDATA[deskripsi: Kosongan: 30kph, Muatan: 15kph<br>tessellate: <br>extrude: <br>visibility: <br>descript_2: ]]></description>
      <styleUrl>#poly-FF0000-1000-0</styleUrl>
      <ExtendedData>
        <Data name="deskripsi">
          <value>Kosongan: 30kph, Muatan: 15kph</value>
        </Data>
        <Data name="tessellate">
          <value/>
        </Data>
        <Data name="extrude">
          <value/>
        </Data>
        <Data name="visibility">
          <value/>
        </Data>
        <Data name="descript_2">
          <value/>
        </Data>
      </ExtendedData>
      <Polygon>
        <outerBoundaryIs>
          <LinearRing>
            <tessellate>1</tessellate>
            <coordinates>
              117.59761,2.161163,0
              117.597589,2.160999,0
              117.598907,2.160342,0
              117.599294,2.160233,0
              117.599552,2.160171,0
              117.599783,2.16011,0
              117.600415,2.159911,0
              117.60091,2.159802,0
              117.601848,2.159685,0
              117.602629,2.159596,0
              117.602833,2.159569,0
              117.603519,2.159199,0
              117.60398,2.159083,0
              117.604761,2.15896,0
              117.605026,2.158625,0
              117.605237,2.158126,0
              117.605468,2.157989,0
              117.606133,2.157893,0
              117.606419,2.157837,0
              117.606466,2.157961,0
              117.605603,2.158153,0
              117.605311,2.158461,0
              117.605189,2.158843,0
              117.604891,2.159089,0
              117.604381,2.159192,0
              117.603913,2.159288,0
              117.603057,2.159609,0
              117.602215,2.159835,0
              117.601393,2.159904,0
              117.600197,2.160178,0
              117.599294,2.160486,0
              117.598282,2.160862,0
              117.59761,2.161163,0
            </coordinates>
          </LinearRing>
        </outerBoundaryIs>
      </Polygon>
    </Placemark>
    <Placemark>
      <name>JL_INFRONT_LEAST</name>
      <description><![CDATA[deskripsi: muatan: 20Kph, kosongan 25Kph<br>tessellate: <br>extrude: <br>visibility: <br>descript_2: ]]></description>
      <styleUrl>#poly-FF0000-1000-0</styleUrl>
      <ExtendedData>
        <Data name="deskripsi">
          <value>muatan: 20Kph, kosongan 25Kph</value>
        </Data>
        <Data name="tessellate">
          <value/>
        </Data>
        <Data name="extrude">
          <value/>
        </Data>
        <Data name="visibility">
          <value/>
        </Data>
        <Data name="descript_2">
          <value/>
        </Data>
      </ExtendedData>
      <Polygon>
        <outerBoundaryIs>
          <LinearRing>
            <tessellate>1</tessellate>
            <coordinates>
              117.606486,2.157965,0
              117.606483,2.157842,0
              117.606975,2.157694,0
              117.607729,2.157489,0
              117.608178,2.157404,0
              117.608775,2.157277,0
              117.609519,2.157055,0
              117.610534,2.156777,0
              117.611207,2.156733,0
              117.611489,2.156644,0
              117.612108,2.156459,0
              117.612529,2.156425,0
              117.61278,2.156472,0
              117.612685,2.156725,0
              117.612508,2.156978,0
              117.612237,2.157149,0
              117.611673,2.157279,0
              117.611184,2.157402,0
              117.611055,2.157519,0
              117.611123,2.157642,0
              117.611449,2.157655,0
              117.611891,2.157477,0
              117.612447,2.15717,0
              117.613079,2.156746,0
              117.613534,2.15654,0
              117.613765,2.156499,0
              117.614023,2.156602,0
              117.613867,2.156773,0
              117.613459,2.156759,0
              117.613059,2.157074,0
              117.612583,2.157313,0
              117.611986,2.157641,0
              117.611694,2.157737,0
              117.611368,2.157805,0
              117.610885,2.157826,0
              117.610654,2.157608,0
              117.609982,2.157724,0
              117.609547,2.157916,0
              117.60945,2.157707,0
              117.610213,2.157498,0
              117.610844,2.157293,0
              117.612196,2.156862,0
              117.612427,2.156712,0
              117.612332,2.156575,0
              117.611849,2.156691,0
              117.610641,2.156952,0
              117.610192,2.157034,0
              117.608311,2.157533,0
              117.606486,2.157965,0
            </coordinates>
          </LinearRing>
        </outerBoundaryIs>
      </Polygon>
    </Placemark>
    <Placemark>
      <name>JL_INDISP_LEXT</name>
      <description><![CDATA[deskripsi: Muatan: 20 Kph, Kosongan:25 Kph<br>tessellate: <br>extrude: <br>visibility: <br>descript_2: ]]></description>
      <styleUrl>#poly-FF0000-1000-0</styleUrl>
      <ExtendedData>
        <Data name="deskripsi">
          <value>Muatan: 20 Kph, Kosongan:25 Kph</value>
        </Data>
        <Data name="tessellate">
          <value/>
        </Data>
        <Data name="extrude">
          <value/>
        </Data>
        <Data name="visibility">
          <value/>
        </Data>
        <Data name="descript_2">
          <value/>
        </Data>
      </ExtendedData>
      <Polygon>
        <outerBoundaryIs>
          <LinearRing>
            <tessellate>1</tessellate>
            <coordinates>
              117.611756,2.159562,0
              117.610207,2.159952,0
              117.609494,2.160095,0
              117.608638,2.160239,0
              117.608169,2.160424,0
              117.607796,2.160253,0
              117.60766,2.159823,0
              117.607619,2.159447,0
              117.607571,2.159037,0
              117.607551,2.158771,0
              117.607462,2.158661,0
              117.607367,2.158299,0
              117.60734,2.158142,0
              117.60772,2.157978,0
              117.608121,2.157902,0
              117.60861,2.157854,0
              117.608841,2.157827,0
              117.609208,2.157724,0
              117.609398,2.157704,0
              117.609445,2.157875,0
              117.609113,2.157998,0
              117.608753,2.158087,0
              117.608427,2.158148,0
              117.608121,2.158176,0
              117.607822,2.158244,0
              117.607727,2.15834,0
              117.607693,2.158559,0
              117.607748,2.158777,0
              117.607836,2.159133,0
              117.607904,2.159495,0
              117.607965,2.159823,0
              117.608061,2.160089,0
              117.608217,2.16013,0
              117.608529,2.16013,0
              117.608794,2.160082,0
              117.609378,2.159884,0
              117.609697,2.159815,0
              117.610601,2.159664,0
              117.611287,2.1595,0
              117.611579,2.159398,0
              117.611756,2.159562,0
            </coordinates>
          </LinearRing>
        </outerBoundaryIs>
      </Polygon>
    </Placemark>
    <Placemark>
      <name>JL_INDISP_OPDEXT</name>
      <description><![CDATA[deskripsi: Muatan: 20Kph, Kosongan 30Kph<br>tessellate: <br>extrude: <br>visibility: <br>descript_2: ]]></description>
      <styleUrl>#poly-FF0000-1000-0</styleUrl>
      <ExtendedData>
        <Data name="deskripsi">
          <value>Muatan: 20Kph, Kosongan 30Kph</value>
        </Data>
        <Data name="tessellate">
          <value/>
        </Data>
        <Data name="extrude">
          <value/>
        </Data>
        <Data name="visibility">
          <value/>
        </Data>
        <Data name="descript_2">
          <value/>
        </Data>
      </ExtendedData>
      <Polygon>
        <outerBoundaryIs>
          <LinearRing>
            <tessellate>1</tessellate>
            <coordinates>
              117.601916,2.141336,0
              117.602084,2.141195,0
              117.602179,2.141628,0
              117.602668,2.141646,0
              117.602741,2.141955,0
              117.602541,2.141937,0
              117.602224,2.141892,0
              117.602224,2.142056,0
              117.60275,2.143495,0
              117.603104,2.143951,0
              117.603403,2.144379,0
              117.603856,2.144861,0
              117.604037,2.145517,0
              117.603956,2.145864,0
              117.603847,2.146173,0
              117.603766,2.146374,0
              117.603874,2.146501,0
              117.604037,2.146356,0
              117.604228,2.146501,0
              117.604074,2.146592,0
              117.603947,2.146911,0
              117.604155,2.147303,0
              117.604518,2.147932,0
              117.605053,2.148423,0
              117.605053,2.14856,0
              117.6046,2.148305,0
              117.604029,2.147476,0
              117.603775,2.146802,0
              117.603557,2.146456,0
              117.603557,2.146155,0
              117.603738,2.145654,0
              117.603829,2.145372,0
              117.603729,2.145117,0
              117.603394,2.144552,0
              117.602768,2.143832,0
              117.602297,2.142885,0
              117.602134,2.142448,0
              117.60198,2.14201,0
              117.601572,2.142174,0
              117.601409,2.142038,0
              117.601536,2.141965,0
              117.601934,2.141746,0
              117.601916,2.141336,0
            </coordinates>
          </LinearRing>
        </outerBoundaryIs>
      </Polygon>
    </Placemark>
    <Placemark>
      <name>JL_SYUKUR</name>
      <description><![CDATA[deskripsi: Muatan: 15Kph, Kosongan 30Kph<br>tessellate: <br>extrude: <br>visibility: <br>descript_2: ]]></description>
      <styleUrl>#poly-FF0000-1000-0</styleUrl>
      <ExtendedData>
        <Data name="deskripsi">
          <value>Muatan: 15Kph, Kosongan 30Kph</value>
        </Data>
        <Data name="tessellate">
          <value/>
        </Data>
        <Data name="extrude">
          <value/>
        </Data>
        <Data name="visibility">
          <value/>
        </Data>
        <Data name="descript_2">
          <value/>
        </Data>
      </ExtendedData>
      <Polygon>
        <outerBoundaryIs>
          <LinearRing>
            <tessellate>1</tessellate>
            <coordinates>
              117.601923,2.141283,0
              117.601829,2.13971,0
              117.601843,2.138972,0
              117.601911,2.138648,0
              117.602024,2.138425,0
              117.602187,2.138302,0
              117.602463,2.138256,0
              117.602721,2.138284,0
              117.60326,2.138456,0
              117.603844,2.138588,0
              117.604302,2.138752,0
              117.604582,2.138948,0
              117.604496,2.139103,0
              117.604229,2.138948,0
              117.603849,2.13878,0
              117.603097,2.138557,0
              117.602477,2.13842,0
              117.602255,2.138452,0
              117.601992,2.138826,0
              117.601933,2.139181,0
              117.602002,2.139664,0
              117.602111,2.140539,0
              117.602056,2.141193,0
              117.601923,2.141283,0
            </coordinates>
          </LinearRing>
        </outerBoundaryIs>
      </Polygon>
    </Placemark>
    <Placemark>
      <name>JL_INFRONT_E2</name>
      <description><![CDATA[deskripsi: Muatan: 20Kph, Kosongan 25Kph<br>tessellate: <br>extrude: <br>visibility: <br>descript_2: ]]></description>
      <styleUrl>#poly-FF0000-1000-0</styleUrl>
      <ExtendedData>
        <Data name="deskripsi">
          <value>Muatan: 20Kph, Kosongan 25Kph</value>
        </Data>
        <Data name="tessellate">
          <value/>
        </Data>
        <Data name="extrude">
          <value/>
        </Data>
        <Data name="visibility">
          <value/>
        </Data>
        <Data name="descript_2">
          <value/>
        </Data>
      </ExtendedData>
      <Polygon>
        <outerBoundaryIs>
          <LinearRing>
            <tessellate>1</tessellate>
            <coordinates>
              117.604501,2.139101,0
              117.604587,2.138944,0
              117.604927,2.139228,0
              117.605741,2.13998,0
              117.606117,2.14019,0
              117.606325,2.14029,0
              117.606733,2.140563,0
              117.607018,2.140759,0
              117.60724,2.140923,0
              117.607793,2.140882,0
              117.608014,2.140763,0
              117.608042,2.140508,0
              117.608005,2.140358,0
              117.607724,2.140299,0
              117.60738,2.140239,0
              117.606973,2.139975,0
              117.606538,2.139793,0
              117.605867,2.139333,0
              117.605741,2.139147,0
              117.60574,2.13891,0
              117.60567,2.138756,0
              117.605379,2.138584,0
              117.605116,2.138366,0
              117.604433,2.137906,0
              117.603855,2.13758,0
              117.603533,2.137385,0
              117.603178,2.137134,0
              117.60263,2.13679,0
              117.602408,2.136629,0
              117.602014,2.136326,0
              117.601828,2.136028,0
              117.601574,2.135825,0
              117.60145,2.135823,0
              117.601728,2.135625,0
              117.601959,2.135802,0
              117.602245,2.136178,0
              117.602462,2.13639,0
              117.602686,2.136554,0
              117.60325,2.136977,0
              117.604052,2.137496,0
              117.604697,2.137837,0
              117.605343,2.138363,0
              117.60552,2.138466,0
              117.605581,2.138028,0
              117.605472,2.137687,0
              117.605444,2.137338,0
              117.605594,2.137379,0
              117.605669,2.138076,0
              117.605669,2.13822,0
              117.605784,2.138493,0
              117.605907,2.138671,0
              117.605975,2.138882,0
              117.606029,2.139163,0
              117.606423,2.139518,0
              117.607313,2.140009,0
              117.607721,2.140242,0
              117.607986,2.140248,0
              117.608122,2.140337,0
              117.608278,2.140508,0
              117.608285,2.140672,0
              117.60855,2.140508,0
              117.608659,2.140631,0
              117.608312,2.140727,0
              117.608251,2.140891,0
              117.608102,2.141027,0
              117.607878,2.141103,0
              117.607613,2.141096,0
              117.607355,2.141096,0
              117.607117,2.141041,0
              117.606811,2.140816,0
              117.606478,2.140529,0
              117.606274,2.140461,0
              117.606125,2.140393,0
              117.606906,2.141178,0
              117.60726,2.141424,0
              117.60709,2.141533,0
              117.606798,2.141199,0
              117.606288,2.140741,0
              117.606064,2.140584,0
              117.60567,2.140208,0
              117.604501,2.139101,0
            </coordinates>
          </LinearRing>
        </outerBoundaryIs>
      </Polygon>
    </Placemark>
    <Placemark>
      <name>JL_PTR_E2</name>
      <description><![CDATA[deskripsi: Muatan: 20Kph, Kosongan 25Kph<br>tessellate: <br>extrude: <br>visibility: <br>descript_2: ]]></description>
      <styleUrl>#poly-FF0000-1000-0</styleUrl>
      <ExtendedData>
        <Data name="deskripsi">
          <value>Muatan: 20Kph, Kosongan 25Kph</value>
        </Data>
        <Data name="tessellate">
          <value/>
        </Data>
        <Data name="extrude">
          <value/>
        </Data>
        <Data name="visibility">
          <value/>
        </Data>
        <Data name="descript_2">
          <value/>
        </Data>
      </ExtendedData>
      <Polygon>
        <outerBoundaryIs>
          <LinearRing>
            <tessellate>1</tessellate>
            <coordinates>
              117.601987,2.138223,0
              117.601036,2.137386,0
              117.600764,2.13707,0
              117.600679,2.136447,0
              117.600535,2.136131,0
              117.600314,2.135917,0
              117.599906,2.135627,0
              117.599159,2.135277,0
              117.59921,2.135029,0
              117.599864,2.135294,0
              117.600348,2.135601,0
              117.600653,2.136011,0
              117.600807,2.136575,0
              117.600934,2.136916,0
              117.60107,2.13719,0
              117.601478,2.137506,0
              117.602089,2.138018,0
              117.601987,2.138223,0
            </coordinates>
          </LinearRing>
        </outerBoundaryIs>
      </Polygon>
    </Placemark>
    <Placemark>
      <name>IN_DISP_E1</name>
      <description><![CDATA[deskripsi: Muatan: 20Kph, Kosongan 25Kph<br>tessellate: <br>extrude: <br>visibility: <br>descript_2: ]]></description>
      <styleUrl>#poly-FF0000-1000-0</styleUrl>
      <ExtendedData>
        <Data name="deskripsi">
          <value>Muatan: 20Kph, Kosongan 25Kph</value>
        </Data>
        <Data name="tessellate">
          <value/>
        </Data>
        <Data name="extrude">
          <value/>
        </Data>
        <Data name="visibility">
          <value/>
        </Data>
        <Data name="descript_2">
          <value/>
        </Data>
      </ExtendedData>
      <Polygon>
        <outerBoundaryIs>
          <LinearRing>
            <tessellate>1</tessellate>
            <coordinates>
              117.600332,2.123666,0
              117.600609,2.12423,0
              117.601509,2.124964,0
              117.60218,2.125506,0
              117.602256,2.125592,0
              117.602103,2.125698,0
              117.601743,2.12537,0
              117.601403,2.125118,0
              117.601178,2.124947,0
              117.600944,2.124751,0
              117.600812,2.12458,0
              117.600409,2.124247,0
              117.600226,2.123986,0
              117.600133,2.123773,0
              117.600086,2.123658,0
              117.600332,2.123666,0
            </coordinates>
          </LinearRing>
        </outerBoundaryIs>
      </Polygon>
    </Placemark>
    <Placemark>
      <name>JL_INFRONT_E1</name>
      <description><![CDATA[deskripsi: Muatan: 20Kph, Kosongan 25Kph<br>tessellate: <br>extrude: <br>visibility: <br>descript_2: ]]></description>
      <styleUrl>#poly-FF0000-1000-0</styleUrl>
      <ExtendedData>
        <Data name="deskripsi">
          <value>Muatan: 20Kph, Kosongan 25Kph</value>
        </Data>
        <Data name="tessellate">
          <value/>
        </Data>
        <Data name="extrude">
          <value/>
        </Data>
        <Data name="visibility">
          <value/>
        </Data>
        <Data name="descript_2">
          <value/>
        </Data>
      </ExtendedData>
      <Polygon>
        <outerBoundaryIs>
          <LinearRing>
            <tessellate>1</tessellate>
            <coordinates>
              117.603492,2.125698,0
              117.603738,2.125557,0
              117.604213,2.125971,0
              117.604621,2.126278,0
              117.60491,2.126492,0
              117.605216,2.126714,0
              117.605445,2.126859,0
              117.605831,2.126803,0
              117.60578,2.126675,0
              117.605534,2.126504,0
              117.6053,2.126342,0
              117.604608,2.125813,0
              117.604379,2.125719,0
              117.604124,2.125548,0
              117.604056,2.12542,0
              117.604404,2.125471,0
              117.604778,2.12565,0
              117.605075,2.125915,0
              117.605398,2.126137,0
              117.605746,2.126393,0
              117.606001,2.126564,0
              117.606077,2.126769,0
              117.60595,2.126999,0
              117.60573,2.127102,0
              117.605424,2.127111,0
              117.605076,2.127068,0
              117.604693,2.126675,0
              117.604141,2.12624,0
              117.603492,2.125698,0
            </coordinates>
          </LinearRing>
        </outerBoundaryIs>
      </Polygon>
    </Placemark>
    <Placemark>
      <name>JL_ASSALAM_E1</name>
      <description><![CDATA[deskripsi: Muatan: 20Kph, Kosongan 30Kph<br>tessellate: <br>extrude: <br>visibility: <br>descript_2: ]]></description>
      <styleUrl>#poly-FF0000-1000-0</styleUrl>
      <ExtendedData>
        <Data name="deskripsi">
          <value>Muatan: 20Kph, Kosongan 30Kph</value>
        </Data>
        <Data name="tessellate">
          <value/>
        </Data>
        <Data name="extrude">
          <value/>
        </Data>
        <Data name="visibility">
          <value/>
        </Data>
        <Data name="descript_2">
          <value/>
        </Data>
      </ExtendedData>
      <Polygon>
        <outerBoundaryIs>
          <LinearRing>
            <tessellate>1</tessellate>
            <coordinates>
              117.603504,2.125659,0
              117.602596,2.125062,0
              117.60195,2.124686,0
              117.60133,2.123815,0
              117.600829,2.123619,0
              117.600413,2.123628,0
              117.600133,2.123628,0
              117.599954,2.123295,0
              117.599886,2.122919,0
              117.599555,2.122005,0
              117.598977,2.121365,0
              117.598111,2.120263,0
              117.597754,2.120118,0
              117.597346,2.119734,0
              117.596896,2.118982,0
              117.59648,2.118538,0
              117.59575,2.117983,0
              117.595164,2.117462,0
              117.593635,2.116028,0
              117.593159,2.11543,0
              117.593099,2.114978,0
              117.593312,2.114602,0
              117.593677,2.114285,0
              117.594041,2.113986,0
              117.5945,2.113645,0
              117.595035,2.113473,0
              117.595417,2.113328,0
              117.596053,2.11314,0
              117.596368,2.113157,0
              117.596385,2.113353,0
              117.595935,2.113362,0
              117.59523,2.11361,0
              117.594517,2.113867,0
              117.593821,2.114328,0
              117.593303,2.114773,0
              117.593201,2.115157,0
              117.593516,2.115592,0
              117.594025,2.116113,0
              117.594705,2.116865,0
              117.595384,2.117411,0
              117.596157,2.118103,0
              117.596641,2.118487,0
              117.597049,2.118846,0
              117.597593,2.119734,0
              117.597915,2.119947,0
              117.598306,2.120169,0
              117.598654,2.120622,0
              117.59913,2.121313,0
              117.599589,2.121817,0
              117.599903,2.122244,0
              117.600022,2.123073,0
              117.600222,2.123342,0
              117.601211,2.123452,0
              117.601381,2.123585,0
              117.601878,2.124114,0
              117.602332,2.124622,0
              117.602782,2.124972,0
              117.603279,2.125254,0
              117.603717,2.125557,0
              117.603504,2.125659,0
            </coordinates>
          </LinearRing>
        </outerBoundaryIs>
      </Polygon>
    </Placemark>
    <Placemark>
      <name>INDISP_OPDE1</name>
      <description><![CDATA[deskripsi: Muatan: 20Kph, Kosongan 25Kph<br>tessellate: <br>extrude: <br>visibility: <br>descript_2: ]]></description>
      <styleUrl>#poly-FF0000-1000-0</styleUrl>
      <ExtendedData>
        <Data name="deskripsi">
          <value>Muatan: 20Kph, Kosongan 25Kph</value>
        </Data>
        <Data name="tessellate">
          <value/>
        </Data>
        <Data name="extrude">
          <value/>
        </Data>
        <Data name="visibility">
          <value/>
        </Data>
        <Data name="descript_2">
          <value/>
        </Data>
      </ExtendedData>
      <Polygon>
        <outerBoundaryIs>
          <LinearRing>
            <tessellate>1</tessellate>
            <coordinates>
              117.596389,2.1134,0
              117.596385,2.1132,0
              117.596767,2.113195,0
              117.596953,2.113063,0
              117.597051,2.112922,0
              117.596953,2.112717,0
              117.596439,2.112405,0
              117.595441,2.11153,0
              117.594923,2.110984,0
              117.594601,2.110634,0
              117.594575,2.110253,0
              117.594651,2.109779,0
              117.594906,2.109361,0
              117.595016,2.109254,0
              117.595126,2.108925,0
              117.595096,2.108494,0
              117.595003,2.10834,0
              117.59482,2.108062,0
              117.594608,2.107529,0
              117.594586,2.106901,0
              117.59454,2.106431,0
              117.594697,2.106474,0
              117.594692,2.106721,0
              117.594722,2.107037,0
              117.594799,2.107302,0
              117.594875,2.10749,0
              117.594935,2.107669,0
              117.595011,2.108028,0
              117.59513,2.108301,0
              117.595241,2.108677,0
              117.595207,2.109275,0
              117.595105,2.109531,0
              117.594817,2.109942,0
              117.5948,2.11042,0
              117.594987,2.110693,0
              117.595463,2.111188,0
              117.59587,2.111667,0
              117.596652,2.112281,0
              117.597255,2.112691,0
              117.597535,2.112477,0
              117.597688,2.112554,0
              117.5979,2.112998,0
              117.597705,2.113144,0
              117.59773,2.11287,0
              117.597594,2.112734,0
              117.597382,2.112853,0
              117.597017,2.113212,0
              117.596678,2.113358,0
              117.596644,2.113622,0
              117.596805,2.114212,0
              117.596984,2.114963,0
              117.597298,2.115484,0
              117.597833,2.11615,0
              117.598309,2.116637,0
              117.598394,2.11685,0
              117.597706,2.116278,0
              117.59684,2.115109,0
              117.59661,2.113981,0
              117.596389,2.1134,0
            </coordinates>
          </LinearRing>
        </outerBoundaryIs>
      </Polygon>
    </Placemark>
    <Placemark>
      <name>JL_ALMUKMIN</name>
      <description><![CDATA[deskripsi: Muatan: 25Kph, Kosongan 30Kph<br>tessellate: <br>extrude: <br>visibility: <br>descript_2: ]]></description>
      <styleUrl>#poly-FF0000-1000-0</styleUrl>
      <ExtendedData>
        <Data name="deskripsi">
          <value>Muatan: 25Kph, Kosongan 30Kph</value>
        </Data>
        <Data name="tessellate">
          <value/>
        </Data>
        <Data name="extrude">
          <value/>
        </Data>
        <Data name="visibility">
          <value/>
        </Data>
        <Data name="descript_2">
          <value/>
        </Data>
      </ExtendedData>
      <Polygon>
        <outerBoundaryIs>
          <LinearRing>
            <tessellate>1</tessellate>
            <coordinates>
              117.584281,2.123074,0
              117.582842,2.122891,0
              117.582438,2.122738,0
              117.581164,2.12217,0
              117.580515,2.121859,0
              117.579356,2.121261,0
              117.578923,2.121231,0
              117.57798,2.12133,0
              117.577123,2.121411,0
              117.576291,2.121497,0
              117.575764,2.121536,0
              117.575217,2.121668,0
              117.575153,2.121438,0
              117.577275,2.121104,0
              117.578935,2.121001,0
              117.579347,2.121005,0
              117.579631,2.121167,0
              117.580689,2.121713,0
              117.581619,2.122183,0
              117.582149,2.122388,0
              117.582812,2.122656,0
              117.583398,2.122776,0
              117.584298,2.122895,0
              117.584281,2.123074,0
            </coordinates>
          </LinearRing>
        </outerBoundaryIs>
      </Polygon>
    </Placemark>
    <Placemark>
      <name>INDIS_MUKMIN</name>
      <description><![CDATA[deskripsi: Muatan: 20Kph, Kosongan 25Kph<br>tessellate: <br>extrude: <br>visibility: <br>descript_2: ]]></description>
      <styleUrl>#poly-FF0000-1000-0</styleUrl>
      <ExtendedData>
        <Data name="deskripsi">
          <value>Muatan: 20Kph, Kosongan 25Kph</value>
        </Data>
        <Data name="tessellate">
          <value/>
        </Data>
        <Data name="extrude">
          <value/>
        </Data>
        <Data name="visibility">
          <value/>
        </Data>
        <Data name="descript_2">
          <value/>
        </Data>
      </ExtendedData>
      <Polygon>
        <outerBoundaryIs>
          <LinearRing>
            <tessellate>1</tessellate>
            <coordinates>
              117.579237,2.12086,0
              117.579067,2.120873,0
              117.579041,2.120826,0
              117.57905,2.120808,0
              117.578914,2.120663,0
              117.578591,2.120407,0
              117.578336,2.120441,0
              117.578082,2.120433,0
              117.577394,2.120032,0
              117.576901,2.119742,0
              117.577046,2.119562,0
              117.57747,2.119921,0
              117.578116,2.120262,0
              117.578396,2.120228,0
              117.578319,2.120066,0
              117.578226,2.119707,0
              117.57809,2.119288,0
              117.578124,2.118964,0
              117.578378,2.118554,0
              117.578684,2.118596,0
              117.578404,2.118955,0
              117.578361,2.119382,0
              117.578362,2.119835,0
              117.578727,2.120279,0
              117.579237,2.12086,0
            </coordinates>
          </LinearRing>
        </outerBoundaryIs>
      </Polygon>
    </Placemark>
    <Placemark>
      <name>BUTRESS_WEST</name>
      <description><![CDATA[deskripsi: Muatan: 15Kph, Kosongan 25Kph<br>tessellate: <br>extrude: <br>visibility: <br>descript_2: ]]></description>
      <styleUrl>#poly-FF0000-1000-0</styleUrl>
      <ExtendedData>
        <Data name="deskripsi">
          <value>Muatan: 15Kph, Kosongan 25Kph</value>
        </Data>
        <Data name="tessellate">
          <value/>
        </Data>
        <Data name="extrude">
          <value/>
        </Data>
        <Data name="visibility">
          <value/>
        </Data>
        <Data name="descript_2">
          <value/>
        </Data>
      </ExtendedData>
      <Polygon>
        <outerBoundaryIs>
          <LinearRing>
            <tessellate>1</tessellate>
            <coordinates>
              117.574737,2.121427,0
              117.574552,2.121176,0
              117.574444,2.120869,0
              117.57435,2.119972,0
              117.574392,2.119212,0
              117.574196,2.11823,0
              117.573976,2.117871,0
              117.573908,2.117683,0
              117.574077,2.117828,0
              117.574307,2.118289,0
              117.574536,2.119353,0
              117.574533,2.120502,0
              117.574694,2.121065,0
              117.574853,2.121344,0
              117.574737,2.121427,0
            </coordinates>
          </LinearRing>
        </outerBoundaryIs>
      </Polygon>
    </Placemark>
    <Placemark>
      <name>JL_INFRONT_WEST</name>
      <description><![CDATA[deskripsi: Muatan: 20Kph, Kosongan 25Kph<br>tessellate: <br>extrude: <br>visibility: <br>descript_2: ]]></description>
      <styleUrl>#poly-FF0000-1000-0</styleUrl>
      <ExtendedData>
        <Data name="deskripsi">
          <value>Muatan: 20Kph, Kosongan 25Kph</value>
        </Data>
        <Data name="tessellate">
          <value/>
        </Data>
        <Data name="extrude">
          <value/>
        </Data>
        <Data name="visibility">
          <value/>
        </Data>
        <Data name="descript_2">
          <value/>
        </Data>
      </ExtendedData>
      <Polygon>
        <outerBoundaryIs>
          <LinearRing>
            <tessellate>1</tessellate>
            <coordinates>
              117.581744,2.12218,0
              117.582498,2.121451,0
              117.582917,2.121098,0
              117.58329,2.120904,0
              117.583641,2.12079,0
              117.583811,2.120676,0
              117.583901,2.120414,0
              117.58415,2.120232,0
              117.584501,2.119901,0
              117.584807,2.119833,0
              117.585158,2.11989,0
              117.585486,2.119855,0
              117.585882,2.119673,0
              117.586222,2.119513,0
              117.586674,2.11932,0
              117.587037,2.11916,0
              117.587263,2.119137,0
              117.587659,2.119046,0
              117.587863,2.118932,0
              117.587569,2.118636,0
              117.586889,2.118272,0
              117.587149,2.118226,0
              117.587625,2.118488,0
              117.587953,2.118829,0
              117.588169,2.119057,0
              117.588486,2.118909,0
              117.588927,2.118579,0
              117.589402,2.118202,0
              117.589617,2.117872,0
              117.58973,2.11753,0
              117.589775,2.117109,0
              117.589673,2.11671,0
              117.589424,2.116289,0
              117.589288,2.115925,0
              117.589379,2.115651,0
              117.589571,2.115777,0
              117.58956,2.116095,0
              117.589707,2.116392,0
              117.589979,2.116619,0
              117.590025,2.117143,0
              117.589968,2.117473,0
              117.589866,2.117838,0
              117.589651,2.118237,0
              117.589097,2.118715,0
              117.588599,2.118966,0
              117.588237,2.119245,0
              117.588316,2.11945,0
              117.588412,2.119906,0
              117.588447,2.120327,0
              117.588458,2.120842,0
              117.58839,2.121184,0
              117.588235,2.121403,0
              117.588017,2.121702,0
              117.587592,2.122138,0
              117.587191,2.122611,0
              117.586738,2.123064,0
              117.586217,2.123451,0
              117.585867,2.12373,0
              117.585657,2.12401,0
              117.58564,2.124135,0
              117.585941,2.124448,0
              117.586269,2.124533,0
              117.586597,2.124596,0
              117.586795,2.124499,0
              117.587146,2.124174,0
              117.587582,2.123696,0
              117.587774,2.123855,0
              117.587469,2.124134,0
              117.587118,2.12451,0
              117.586773,2.124761,0
              117.586326,2.124767,0
              117.586263,2.124852,0
              117.586099,2.124881,0
              117.585805,2.124647,0
              117.585573,2.124431,0
              117.585425,2.124198,0
              117.585306,2.123725,0
              117.585148,2.123537,0
              117.584723,2.12323,0
              117.584327,2.123082,0
              117.584338,2.122928,0
              117.584615,2.123008,0
              117.584899,2.123121,0
              117.58508,2.123258,0
              117.585306,2.123452,0
              117.585453,2.123668,0
              117.585533,2.123816,0
              117.585702,2.123662,0
              117.58607,2.122905,0
              117.586056,2.122825,0
              117.586045,2.12254,0
              117.585954,2.122005,0
              117.58618,2.121948,0
              117.586191,2.122028,0
              117.586271,2.122472,0
              117.586577,2.122472,0
              117.587029,2.122369,0
              117.587889,2.121628,0
              117.588218,2.121104,0
              117.588274,2.120717,0
              117.588262,2.120193,0
              117.588194,2.119726,0
              117.588002,2.119282,0
              117.587628,2.119214,0
              117.587062,2.119533,0
              117.586247,2.119738,0
              117.585862,2.119898,0
              117.585387,2.120172,0
              117.585093,2.12016,0
              117.584931,2.120026,0
              117.584413,2.120235,0
              117.584323,2.120303,0
              117.584105,2.120582,0
              117.584043,2.120767,0
              117.583984,2.120984,0
              117.583771,2.12106,0
              117.58356,2.121073,0
              117.583266,2.121125,0
              117.583068,2.12125,0
              117.582678,2.121603,0
              117.58199,2.122297,0
              117.581744,2.12218,0
            </coordinates>
          </LinearRing>
        </outerBoundaryIs>
      </Polygon>
    </Placemark>
    <Placemark>
      <name>INFRONT_K</name>
      <description><![CDATA[deskripsi: Muatan: 20Kph, Kosongan 25Kph<br>tessellate: <br>extrude: <br>visibility: <br>descript_2: ]]></description>
      <styleUrl>#poly-FF0000-1000-0</styleUrl>
      <ExtendedData>
        <Data name="deskripsi">
          <value>Muatan: 20Kph, Kosongan 25Kph</value>
        </Data>
        <Data name="tessellate">
          <value/>
        </Data>
        <Data name="extrude">
          <value/>
        </Data>
        <Data name="visibility">
          <value/>
        </Data>
        <Data name="descript_2">
          <value/>
        </Data>
      </ExtendedData>
      <Polygon>
        <outerBoundaryIs>
          <LinearRing>
            <tessellate>1</tessellate>
            <coordinates>
              117.581221,2.111338,0
              117.581215,2.111452,0
              117.581022,2.11148,0
              117.580723,2.111594,0
              117.580394,2.111777,0
              117.579981,2.111874,0
              117.579585,2.112022,0
              117.579257,2.112421,0
              117.578697,2.112899,0
              117.578283,2.113082,0
              117.577655,2.11307,0
              117.577366,2.113127,0
              117.577083,2.113116,0
              117.576755,2.113042,0
              117.576342,2.112986,0
              117.576048,2.112991,0
              117.575521,2.112997,0
              117.574729,2.11302,0
              117.5747,2.112821,0
              117.575685,2.112815,0
              117.576602,2.112854,0
              117.577021,2.112957,0
              117.577502,2.112928,0
              117.578289,2.112877,0
              117.578912,2.112512,0
              117.579506,2.111874,0
              117.579749,2.111783,0
              117.580524,2.111566,0
              117.580739,2.111424,0
              117.581221,2.111338,0
            </coordinates>
          </LinearRing>
        </outerBoundaryIs>
      </Polygon>
    </Placemark>
    <Placemark>
      <name>BUTRESS_K</name>
      <description><![CDATA[deskripsi: Muatan: 20Kph, Kosongan 25Kph<br>tessellate: <br>extrude: <br>visibility: <br>descript_2: ]]></description>
      <styleUrl>#poly-FF0000-1000-0</styleUrl>
      <ExtendedData>
        <Data name="deskripsi">
          <value>Muatan: 20Kph, Kosongan 25Kph</value>
        </Data>
        <Data name="tessellate">
          <value/>
        </Data>
        <Data name="extrude">
          <value/>
        </Data>
        <Data name="visibility">
          <value/>
        </Data>
        <Data name="descript_2">
          <value/>
        </Data>
      </ExtendedData>
      <Polygon>
        <outerBoundaryIs>
          <LinearRing>
            <tessellate>1</tessellate>
            <coordinates>
              117.574689,2.112855,0
              117.574689,2.113015,0
              117.574463,2.112981,0
              117.57401,2.112673,0
              117.57367,2.112343,0
              117.573319,2.111796,0
              117.573239,2.111273,0
              117.573115,2.110794,0
              117.573081,2.110418,0
              117.573318,2.110464,0
              117.573477,2.111193,0
              117.573568,2.111762,0
              117.57367,2.112024,0
              117.573976,2.11232,0
              117.574191,2.112605,0
              117.574395,2.112707,0
              117.574689,2.112821,0
              117.574689,2.112855,0
            </coordinates>
          </LinearRing>
        </outerBoundaryIs>
      </Polygon>
    </Placemark>
    <Placemark>
      <name>INDISP_BUTRESS_K</name>
      <description><![CDATA[deskripsi: Muatan: 20Kph, Kosongan 25Kph<br>tessellate: <br>extrude: <br>visibility: <br>descript_2: ]]></description>
      <styleUrl>#poly-FF0000-1000-0</styleUrl>
      <ExtendedData>
        <Data name="deskripsi">
          <value>Muatan: 20Kph, Kosongan 25Kph</value>
        </Data>
        <Data name="tessellate">
          <value/>
        </Data>
        <Data name="extrude">
          <value/>
        </Data>
        <Data name="visibility">
          <value/>
        </Data>
        <Data name="descript_2">
          <value/>
        </Data>
      </ExtendedData>
      <Polygon>
        <outerBoundaryIs>
          <LinearRing>
            <tessellate>1</tessellate>
            <coordinates>
              117.57448,2.113037,0
              117.574565,2.113114,0
              117.574313,2.113331,0
              117.573996,2.113579,0
              117.573942,2.114498,0
              117.574067,2.114732,0
              117.574073,2.11517,0
              117.574186,2.115563,0
              117.574039,2.115745,0
              117.573904,2.116275,0
              117.573943,2.116417,0
              117.57379,2.116406,0
              117.573802,2.11607,0
              117.573937,2.1157,0
              117.573931,2.11529,0
              117.573892,2.114863,0
              117.573778,2.114601,0
              117.573778,2.114134,0
              117.573744,2.11369,0
              117.573744,2.113553,0
              117.573982,2.113348,0
              117.574151,2.1132,0
              117.574372,2.113075,0
              117.57448,2.113037,0
            </coordinates>
          </LinearRing>
        </outerBoundaryIs>
      </Polygon>
    </Placemark>
    <Placemark>
      <name>JL_ALLATIF</name>
      <description><![CDATA[deskripsi: Muatan: 20Kph, Kosongan 25Kph<br>tessellate: <br>extrude: <br>visibility: <br>descript_2: ]]></description>
      <styleUrl>#poly-FF0000-1000-0</styleUrl>
      <ExtendedData>
        <Data name="deskripsi">
          <value>Muatan: 20Kph, Kosongan 25Kph</value>
        </Data>
        <Data name="tessellate">
          <value/>
        </Data>
        <Data name="extrude">
          <value/>
        </Data>
        <Data name="visibility">
          <value/>
        </Data>
        <Data name="descript_2">
          <value/>
        </Data>
      </ExtendedData>
      <Polygon>
        <outerBoundaryIs>
          <LinearRing>
            <tessellate>1</tessellate>
            <coordinates>
              117.580006,2.101381,0
              117.579994,2.101666,0
              117.579474,2.10153,0
              117.578839,2.101188,0
              117.578443,2.10087,0
              117.578273,2.100562,0
              117.577877,2.100061,0
              117.577305,2.099446,0
              117.576971,2.099384,0
              117.576908,2.099385,0
              117.576907,2.099187,0
              117.577141,2.09923,0
              117.577492,2.099458,0
              117.57782,2.099731,0
              117.578052,2.10005,0
              117.5785,2.100682,0
              117.578811,2.100972,0
              117.579168,2.101239,0
              117.579519,2.101433,0
              117.579796,2.101444,0
              117.579938,2.101467,0
              117.580006,2.101381,0
            </coordinates>
          </LinearRing>
        </outerBoundaryIs>
      </Polygon>
    </Placemark>
    <Placemark>
      <name>JL_INFRONT_EFG</name>
      <description><![CDATA[deskripsi: Muatan: 20Kph, Kosongan 25Kph<br>tessellate: <br>extrude: <br>visibility: <br>descript_2: ]]></description>
      <styleUrl>#poly-FF0000-1000-0</styleUrl>
      <ExtendedData>
        <Data name="deskripsi">
          <value>Muatan: 20Kph, Kosongan 25Kph</value>
        </Data>
        <Data name="tessellate">
          <value/>
        </Data>
        <Data name="extrude">
          <value/>
        </Data>
        <Data name="visibility">
          <value/>
        </Data>
        <Data name="descript_2">
          <value/>
        </Data>
      </ExtendedData>
      <Polygon>
        <outerBoundaryIs>
          <LinearRing>
            <tessellate>1</tessellate>
            <coordinates>
              117.580031,2.101407,0
              117.580761,2.101589,0
              117.58139,2.101891,0
              117.582188,2.102346,0
              117.582148,2.102124,0
              117.582075,2.101845,0
              117.582063,2.10152,0
              117.582176,2.101309,0
              117.582335,2.101321,0
              117.582261,2.101509,0
              117.582188,2.101697,0
              117.582199,2.101913,0
              117.582375,2.102198,0
              117.582482,2.102334,0
              117.583003,2.102551,0
              117.583405,2.102664,0
              117.583977,2.103199,0
              117.584447,2.103774,0
              117.584724,2.104264,0
              117.584928,2.104554,0
              117.58507,2.104862,0
              117.58524,2.105146,0
              117.585665,2.105625,0
              117.585863,2.105693,0
              117.585925,2.105556,0
              117.585659,2.105169,0
              117.58541,2.104856,0
              117.585268,2.104702,0
              117.585398,2.104577,0
              117.586015,2.105357,0
              117.586202,2.105505,0
              117.586689,2.105898,0
              117.58687,2.105983,0
              117.586735,2.106142,0
              117.586417,2.105864,0
              117.586112,2.105659,0
              117.586044,2.105727,0
              117.586174,2.105989,0
              117.586327,2.106256,0
              117.586735,2.106524,0
              117.587386,2.10682,0
              117.587556,2.106871,0
              117.587522,2.106951,0
              117.587052,2.106814,0
              117.586622,2.106558,0
              117.58618,2.106285,0
              117.585999,2.106029,0
              117.585857,2.105841,0
              117.585517,2.105534,0
              117.585172,2.105255,0
              117.584787,2.104805,0
              117.584555,2.104566,0
              117.584424,2.104219,0
              117.584147,2.103837,0
              117.5837,2.103422,0
              117.583162,2.102881,0
              117.582726,2.102659,0
              117.582324,2.102511,0
              117.582013,2.102466,0
              117.580671,2.101754,0
              117.580054,2.101623,0
              117.580031,2.101407,0
            </coordinates>
          </LinearRing>
        </outerBoundaryIs>
      </Polygon>
    </Placemark>
    <Placemark>
      <name>JL_INDSIP_EFG</name>
      <description><![CDATA[deskripsi: Muatan: 20Kph, Kosongan 25Kph<br>tessellate: <br>extrude: <br>visibility: <br>descript_2: ]]></description>
      <styleUrl>#poly-FF0000-1000-0</styleUrl>
      <ExtendedData>
        <Data name="deskripsi">
          <value>Muatan: 20Kph, Kosongan 25Kph</value>
        </Data>
        <Data name="tessellate">
          <value/>
        </Data>
        <Data name="extrude">
          <value/>
        </Data>
        <Data name="visibility">
          <value/>
        </Data>
        <Data name="descript_2">
          <value/>
        </Data>
      </ExtendedData>
      <Polygon>
        <outerBoundaryIs>
          <LinearRing>
            <tessellate>1</tessellate>
            <coordinates>
              117.587203,2.106889,0
              117.587216,2.106996,0
              117.586913,2.106968,0
              117.586483,2.106869,0
              117.586206,2.106749,0
              117.585843,2.106413,0
              117.585345,2.105807,0
              117.584951,2.10546,0
              117.585042,2.105363,0
              117.585914,2.106316,0
              117.586588,2.106758,0
              117.587203,2.106889,0
            </coordinates>
          </LinearRing>
        </outerBoundaryIs>
      </Polygon>
    </Placemark>
    <Placemark>
      <name>IDISP_BUTT_EFG</name>
      <description><![CDATA[deskripsi: Muatan: 20Kph, Kosongan 25Kph<br>tessellate: <br>extrude: <br>visibility: <br>descript_2: ]]></description>
      <styleUrl>#poly-FF0000-1000-0</styleUrl>
      <ExtendedData>
        <Data name="deskripsi">
          <value>Muatan: 20Kph, Kosongan 25Kph</value>
        </Data>
        <Data name="tessellate">
          <value/>
        </Data>
        <Data name="extrude">
          <value/>
        </Data>
        <Data name="visibility">
          <value/>
        </Data>
        <Data name="descript_2">
          <value/>
        </Data>
      </ExtendedData>
      <Polygon>
        <outerBoundaryIs>
          <LinearRing>
            <tessellate>1</tessellate>
            <coordinates>
              117.57681,2.099412,0
              117.576017,2.099834,0
              117.575553,2.10029,0
              117.574693,2.10119,0
              117.573912,2.102113,0
              117.573618,2.102511,0
              117.573324,2.103126,0
              117.572996,2.103035,0
              117.573347,2.102306,0
              117.574048,2.101372,0
              117.575463,2.100028,0
              117.576051,2.099458,0
              117.576843,2.099139,0
              117.57681,2.099412,0
            </coordinates>
          </LinearRing>
        </outerBoundaryIs>
      </Polygon>
    </Placemark>
  </Document>
</kml>
